{"elements": [{"lat": 61.4865542, "lon": 21.7968951, "type": "node", "tags": {"name:sv": "Bj\u00f6rneborg", "old_name:de": "Bjorneborgh", "population": "83525", "name:la": "Arctopolis", "start_date": "before 1724", "name:ru": "\u041f\u043e\u0440\u0438", "is_in:country": "Finland", "population:date": "2013-12-31", "is_in": "Satakunta, Western Finland, Finland, EU", "wikidata": "Q180233", "place": "city", "wikipedia": "fi:Pori", "name": "Pori", "name:no": "Bj\u00f6rneborg", "is_in:country_code": "FI", "name:hu": "Pori", "name:sr-Latn": "Peri", "url": "www.pori.fi", "name:fi": "Pori", "is_in:continent": "Europe", "name:sr": "\u041f\u043e\u0440\u0438"}, "id": 21640149}, {"lat": 60.4517531, "lon": 22.2670522, "type": "node", "tags": {"name:sv": "\u00c5bo", "population": "182255", "name:et": "Turu", "name:ru": "\u0422\u0443\u0440\u043a\u0443", "is_in:country": "Finland", "source:name": "common knowledge", "population:date": "2013-12-31", "is_in": "Finland", "wikidata": "Q38511", "name:lt": "Turku", "wikipedia": "fi:Turku", "name:zh": "\u5716\u723e\u5eab", "name": "Turku", "name:hu": "Turku", "name:ar": "\u062a\u0648\u0631\u0643\u0648", "place": "city", "postal_code": "20100", "name:fi": "Turku", "is_in:continent": "Europe", "url": "http://www.turku.fi/"}, "id": 21847490}, {"lat": 65.0118734, "lon": 25.4716809, "type": "node", "tags": {"name:sv": "Ule\u00e5borg", "population": "193825", "name:ru": "\u041e\u0443\u043b\u0443", "is_in:country": "Finland", "old_name:en:start_date": "before 1751", "population:date": "2013-12-31", "is_in": "Finland", "wikidata": "Q47048", "name:lt": "Oulu", "old_name:en": "Ula", "name:zh": "\u5967\u76e7", "name": "Oulu", "is_in:country_code": "FI", "place": "city", "wikipedia": "fi:Oulu", "url": "http://www.ouka.fi/", "name:fi": "Oulu", "is_in:continent": "Europe", "name:sr": "\u041e\u0443\u043b\u0443"}, "id": 29064107}, {"lat": 60.3091871, "lon": 25.0364526, "type": "node", "tags": {"name:sv": "Vanda", "population": "208052", "name:ru": "\u0412\u0430\u043d\u0442\u0430\u0430", "is_in:country": "Finland", "population:date": "2013-12-31", "is_in": "Finland", "wikidata": "Q127623", "name:lt": "Vanta", "wikipedia": "fi:Vantaa", "name": "Vantaa", "is_in:country_code": "FI", "place": "city", "name:fi": "Vantaa", "is_in:continent": "Europe", "url": "http://www.vantaa.fi/"}, "id": 30871749}, {"lat": 61.4980214, "lon": 23.7603118, "type": "node", "tags": {"start_date": "1779", "gns:ufi": "-1388513", "name:ko": "\ud0d0\ud398\ub808", "name:ru": "\u0422\u0430\u043c\u043f\u0435\u0440\u0435", "source": "gns", "population:date": "2013-12-31", "place": "city", "name:el": "\u03a4\u03ac\u03bc\u03c0\u03b5\u03c1\u03b5", "name:zh": "\u5766\u4f69\u96f7", "name": "Tampere", "name:no": "Tammerfors", "name:fi": "Tampere", "name:uk": "\u0422\u0430\u043c\u043f\u0435\u0440\u0435", "url": "http://www.tampere.fi/", "name:sv": "Tammerfors", "population": "220579", "is_in:country": "Finland", "name:fa": "\u062a\u0627\u0645\u067e\u0631\u06cc", "is_in": "Finland", "wikidata": "Q40840", "name:lt": "Tamper\u0117", "wikipedia": "fi:Tampere", "name:ja": "\u30bf\u30f3\u30da\u30ec", "name:ar": "\u062a\u0627\u0645\u0628\u064a\u0631\u064a", "is_in:continent": "Europe", "name:be": "\u0422\u0430\u043c\u043f\u0435\u0440\u044d"}, "id": 30969480}, {"lat": 61.0582424, "lon": 28.1875302, "type": "node", "tags": {"name:sv": "Villmanstrand", "gns:ufi": "-1374408", "old_name:sv": "Wilmanstrand", "population": "72698", "name:ru": "\u041b\u0430\u043f\u043f\u0435\u044d\u043d\u0440\u0430\u043d\u0442\u0430", "is_in:country": "Finland", "population:date": "2013-12-31", "source": "gns", "wikidata": "Q181854", "wikipedia": "fi:Lappeenranta", "name": "Lappeenranta", "place": "city", "name:fi": "Lappeenranta", "url": "http://www.lappeenranta.fi/"}, "id": 30969531}, {"lat": 60.1674086, "lon": 24.9425683, "type": "node", "tags": {"name:eu": "Helsinki", "source": "gns", "name:ko": "\ud5ec\uc2f1\ud0a4", "name:mdf": "\u0425\u0435\u043b\u044c\u0441\u0438\u043d\u043a\u0438", "name:ru": "\u0425\u0435\u043b\u044c\u0441\u0438\u043d\u043a\u0438", "capital_ISO3166-1": "yes", "name:pl": "Helsinki", "wikidata": "Q1757", "name:bg": "\u0425\u0435\u043b\u0437\u0438\u043d\u043a\u0438", "name:de": "Helsinki", "name:koi": "\u0425\u0435\u043b\u044c\u0441\u0438\u043d\u043a\u0438", "name:my": "\u101f\u101a\u103a\u101c\u103a\u1006\u1004\u103a\u1000\u102e\u1019\u103c\u102d\u102f\u1037", "name:arz": "\u0647\u064a\u0644\u0633\u064a\u0646\u0643\u0649", "admin_level": "2", "name:he": "\u05d4\u05dc\u05e1\u05d9\u05e0\u05e7\u05d9", "url": "http://www.hel.fi", "name:en": "Helsinki", "name:yue": "\u8d6b\u723e\u8f9b\u57fa", "name:ur": "\u06c1\u0644\u0633\u0646\u06a9\u06cc", "name:fa": "\u0647\u0644\u0633\u06cc\u0646\u06a9\u06cc", "name:nah": "Helsinqui", "population:date": "2015-11-30", "name:bat-smg": "Hels\u0117nkis", "name:ja": "\u30d8\u30eb\u30b7\u30f3\u30ad", "name:hu": "Helsinki", "name:se": "Helsset", "name:fy": "Helsinky", "name:ckb": "\u06be\u06ce\u0644\u0633\u06cc\u0646\u06a9\u06cc", "name:tg": "\u04b2\u0435\u043b\u0441\u0438\u043d\u043a\u04e3", "note": "This spot is used to calculate distance from Helsinki for road signs, aka 0 km Helsinki", "name:mk": "\u0425\u0435\u043b\u0441\u0438\u043d\u043a\u0438", "name:ace": "H\u00e8lsinki", "name:os": "\u0425\u0435\u043b\u044c\u0441\u0438\u043d\u043a\u0438", "place": "city", "name:el": "\u0395\u03bb\u03c3\u03af\u03bd\u03ba\u03b9", "name:ne": "\u0939\u0947\u0932\u094d\u0938\u093f\u0928\u094d\u0915\u093f", "name:cv": "\u0425\u0435\u043b\u04ab\u0438\u043d\u043a\u0438", "name:ar": "\u0647\u0644\u0633\u0646\u0643\u064a", "name:ca": "H\u00e8lsinki", "name:bo": "\u0f67\u0f7a\u0f63\u0f0b\u0f66\u0f72\u0f53\u0f0b\u0f40\u0f72\u0f0d", "name:be-tarask": "\u0425\u044d\u043b\u044c\u0441\u044b\u043d\u043a\u0456", "name:sv": "Helsingfors", "name:fi": "Helsinki", "source:name:oc": "Lo Congr\u00e8s", "name:mhr": "\u0425\u0435\u043b\u044c\u0441\u0438\u043d\u043a\u0438", "name": "Helsinki", "name:cs": "Helsinky", "capital": "yes", "source:population": "V\u00e4est\u00f6rekisterikeskus", "name:la": "Helsingia", "name:hi": "\u0939\u0947\u0932\u0938\u093f\u0902\u0915\u0940", "name:mrj": "\u0425\u0435\u043b\u044c\u0441\u0438\u043d\u043a\u0438", "name:zh-Hans": "\u8d6b\u5c14\u8f9b\u57fa", "name:myv": "\u0425\u0435\u043b\u044c\u0441\u0438\u043d\u043a\u0438 \u043e\u0448", "name:am": "\u1204\u120d\u1232\u1295\u12aa", "name:udm": "\u0425\u0435\u043b\u044c\u0441\u0438\u043d\u043a\u0438", "name:ast": "\u1e24elsinki", "name:gl": "Helsinqui - Helsinki", "name:mr": "\u0939\u0947\u0932\u0938\u093f\u0902\u0915\u0940", "name:nn": "Helsingfors", "name:kn": "\u0cb9\u0cc6\u0cb2\u0ccd\u0cb8\u0cbf\u0c82\u0c95\u0cbf", "name:kv": "\u0425\u0435\u043b\u044c\u0441\u0438\u043d\u043a\u0438", "name:kk": "\u0425\u0435\u043b\u044c\u0441\u0438\u043d\u043a\u0438", "name:hy": "\u0540\u0565\u056c\u057d\u056b\u0576\u056f\u056b", "is_in:iso_3166_2": "FI-18", "loc_name": "Stadi", "name:lt": "Helsinkis", "name:pnb": "\u06c1\u06cc\u0644\u0633\u0646\u06a9\u06cc", "is_in:country_code": "FI", "is_in:continent": "Europe", "name:ml": "\u0d39\u0d46\u0d7d\u0d38\u0d3f\u0d19\u0d4d\u0d15\u0d3f", "gns:ufi": "-1364995", "name:pt": "Hels\u00ednquia", "name:lzh": "\u8d6b\u723e\u8f9b\u57fa", "name:et": "Helsingi", "name:ka": "\u10f0\u10d4\u10da\u10e1\u10d8\u10dc\u10d9\u10d8", "name:sk": "Helsinki", "name:tt": "\u0425\u0435\u043b\u044c\u0441\u0438\u043d\u043a\u0438", "name:yi": "\u05d4\u05e2\u05dc\u05e1\u05d9\u05e0\u05e7\u05d9", "name:sah": "\u0425\u0435\u043b\u044c\u0441\u0438\u043d\u043a\u0438", "name:is": "Helsinki", "name:th": "\u0e40\u0e2e\u0e25\u0e0b\u0e34\u0e07\u0e01\u0e34", "name:bn": "\u09b9\u09c7\u09b2\u09b8\u09bf\u0999\u09cd\u0995\u09bf", "name:oc": "Helsinki", "name:no": "Helsingfors", "name:ku": "Hels\u00eenk\u00ee", "name:uk": "\u0413\u0435\u043b\u044c\u0441\u0456\u043d\u043a\u0456", "name:vep": "Hel'sinki", "name:sr": "\u0425\u0435\u043b\u0441\u0438\u043d\u043a\u0438", "population": "629725", "name:arc": "\u0717\u0720\u0723\u0722\u0729\u071d", "is_in:country": "Finland", "name:ga": "Heilsinc\u00ed", "is_in": "Finland", "name:fr": "Helsinki", "name:tl": "Lungsod ng Helsinki", "name:ht": "\u00c8lzinki", "name:mt": "\u0126elsinki", "wikipedia": "en:Helsinki", "name:ug": "X\u00e9lsinki", "name:fiu-vro": "Helsingi", "name:ta": "\u0b8e\u0bb2\u0bcd\u0b9a\u0bbf\u0b99\u0bcd\u0b95\u0bbf", "name:zh": "\u8d6b\u723e\u8f9b\u57fa", "name:eo": "Helsinko", "ref:LOCODE": "FIHEL", "name:be": "\u0425\u0435\u043b\u044c\u0441\u0456\u043d\u043a\u0456"}, "id": 1372477580}], "generator": "Overpass API 0.7.55.5 2ca3f387", "osm3s": {"timestamp_osm_base": "2019-01-23T14:32:02Z", "timestamp_areas_base": "2019-01-23T13:53:03Z", "copyright": "The data included in this document is from www.openstreetmap.org. The data is made available under ODbL."}, "version": 0.6}