{"generator": "Overpass API 0.7.55.5 2ca3f387", "elements": [{"id": 4236351, "tags": {"loc_name": "Freda", "surface": "paved", "name:sv": "Fredriksgatan", "snowplowing": "yes", "parking:lane:both": "no_stopping", "highway": "residential", "name": "Fredrikinkatu", "maxspeed": "30", "postal_code": "00100", "lit": "yes", "lanes": "1", "oneway": "yes", "name:fi": "Fredrikinkatu"}, "type": "way", "nodes": [1299909480, 250671439, 1382371899]}, {"id": 4247644, "tags": {"lit": "yes", "surface": "paved", "snowplowing": "yes", "name:sv": "Lappogatan", "highway": "residential", "parking:lane:both": "no_stopping", "name:fi": "Lapuankatu", "name": "Lapuankatu", "maxspeed": "30", "postal_code": "00100"}, "type": "way", "nodes": [1385421031, 300017497, 976570981]}, {"id": 5091196, "tags": {"surface": "paved", "paved:date:lane:right": "2011", "name:sv": "Sofielundsgatan", "name:fi": "Sofianlehdonkatu", "parking:lane:both": "no_stopping", "highway": "residential", "name": "Sofianlehdonkatu", "maxspeed": "50", "postal_code": "00610", "lit": "yes", "lanes": "2", "snowplowing": "yes"}, "type": "way", "nodes": [25543255, 265758951, 265758946, 411290583]}, {"id": 5234269, "tags": {"lit": "yes", "surface": "paved", "name:sv": "Silverv\u00e4gen", "highway": "residential", "name:fi": "Hopeatie", "name": "Hopeatie", "maxspeed": "40", "postal_code": "00440"}, "type": "way", "nodes": [36771805, 143569493]}, {"id": 5234278, "tags": {"lit": "yes", "surface": "paved", "snowplowing": "yes", "name:sv": "Kopperv\u00e4gen", "highway": "residential", "name:fi": "Kuparitie", "name": "Kuparitie", "maxspeed": "40", "postal_code": "00440"}, "type": "way", "nodes": [36813592, 143569496, 36816643, 3373757155, 305039074, 36813674, 298532807]}, {"id": 5234280, "tags": {"name": "Pronssitie", "snowplowing": "yes", "name:sv": "Bronsv\u00e4gen", "highway": "residential", "source": "survey", "name:fi": "Pronssitie", "source:name:sv": "Digiroad.fi", "maxspeed": "40", "postal_code": "00440"}, "type": "way", "nodes": [36813674, 659665761, 36813720, 143569377, 3373052505, 143569383, 143569388, 3373052507]}, {"id": 5234378, "tags": {"start_date": "after 1962", "lit": "yes", "surface": "paved", "snowplowing": "yes", "name:sv": "V\u00e5gv\u00e4gen", "highway": "residential", "source": "survey", "name:fi": "Vaakatie", "name": "Vaakatie", "maxspeed": "40", "postal_code": "00440"}, "type": "way", "nodes": [281871903, 143890081, 3422101245]}, {"id": 5234464, "tags": {"lit": "yes", "snowplowing": "yes", "parking:condition:right:maxstay": "4 h", "name:sv": "Tennv\u00e4gen", "source:name:sv": "Digiroad.fi", "highway": "residential", "postal_code": "00440", "name:fi": "Tinatie", "name": "Tinatie", "maxspeed": "40", "parking:condition:right:time_interval": "6-24"}, "type": "way", "nodes": [36816608, 659665732, 305034484, 305034485, 36815630, 2443633138, 305034383, 305034385]}, {"id": 5557060, "tags": {"name:sv": "F\u00e4nrik St\u00e5ls gata", "name:fi": "V\u00e4nrikki Stoolin katu", "parking:lane:both": "no_stopping", "highway": "residential", "surface": "paved", "maxspeed": "30", "postal_code": "00100", "lit": "yes", "lanes": "2", "name": "V\u00e4nrikki Stoolin katu", "snowplowing": "yes", "zone:traffic": "FI:urban"}, "type": "way", "nodes": [1382693098, 310392297, 712361375]}, {"id": 8137050, "tags": {"lit": "yes", "surface": "paved", "snowplowing": "yes", "name:sv": "T\u00f6l\u00f6gatan", "highway": "residential", "parking:lane:both": "no_stopping", "name:fi": "T\u00f6\u00f6l\u00f6nkatu", "name": "T\u00f6\u00f6l\u00f6nkatu", "maxspeed": "30", "postal_code": "00100"}, "type": "way", "nodes": [60062212, 316551317, 936675295]}, {"id": 8167798, "tags": {"surface": "paved", "snowplowing": "yes", "name:sv": "Museigatan", "parking:condition:left:maxstay": "4 h", "parking:condition:left:default": "free", "parking:condition:left:time_interval": "Mo-Fr 09:00-21:00", "parking:lane:left": "parallel", "highway": "residential", "name": "Museokatu", "maxspeed": "30", "postal_code": "00100", "parking:condition:reason:right": "junction", "lit": "yes", "lanes": "2", "parking:condition:left": "ticket", "parking:lane:right": "no_stopping", "parking:condition:left:residents": "F", "parking:ticket:zone": "2", "name:fi": "Museokatu"}, "type": "way", "nodes": [1371715761, 296549155, 1026094259]}, {"id": 12767811, "tags": {"lit": "yes", "surface": "paved", "name:sv": "Alk\u00e4rrsgatan", "highway": "residential", "name:fi": "Lepp\u00e4suonkatu", "name": "Lepp\u00e4suonkatu", "maxspeed": "30", "postal_code": "00100"}, "type": "way", "nodes": [419280032, 322521471, 1934491019, 319971104, 301702156, 256668409, 1385541989]}, {"id": 14433921, "tags": {"surface": "paved", "start_date": "after 1961", "name:sv": "Lispundsv\u00e4gen", "name:fi": "Leivisk\u00e4tie", "source": "survey", "highway": "residential", "name": "Leivisk\u00e4tie", "postal_code": "00440", "lit": "yes", "lanes": "2", "bicycle": "use_sidepath", "snowplowing": "yes"}, "type": "way", "nodes": [143569502, 36771807, 281873923, 2161777121, 141349097, 143569278, 143569282, 141349092, 3380773813, 281876579, 143569287, 3380773810, 281873119]}, {"id": 14566949, "tags": {"surface": "paved", "start_date": "before 1961", "name:sv": "\u00c4ngslyckev\u00e4gen", "name:fi": "Niitynper\u00e4ntie", "source": "survey", "highway": "residential", "snowplowing:category": "4", "maxspeed": "30", "postal_code": "00440", "lit": "yes", "name": "Niitynper\u00e4ntie", "snowplowing": "yes"}, "type": "way", "nodes": [143490699, 2444176413, 143490702, 3425385598, 143490710, 143490713, 143490714, 2443583365, 2443582892, 143490718]}, {"id": 14571552, "tags": {"surface": "paved", "start_date": "before 1961", "name:sv": "Lars\u00e4ngsv\u00e4gen", "name:fi": "Laurinniityntie", "source": "survey", "highway": "residential", "name": "Laurinniityntie", "maxspeed": "30", "postal_code": "00440", "lit": "yes", "bicycle": "use_sidepath", "parking:left": "no", "snowplowing": "yes"}, "type": "way", "nodes": [141359282, 1671845292, 141359286]}, {"id": 14571572, "tags": {"lit": "yes", "snowplowing": "yes", "sidewalk": "no", "name:sv": "V\u00e5ggr\u00e4nden", "highway": "residential", "source": "survey", "name:fi": "Vaakakuja", "name": "Vaakakuja", "maxspeed": "30", "postal_code": "00440"}, "type": "way", "nodes": [143569585, 1487658909, 281871899, 1487671342, 1172280553]}, {"id": 15090485, "tags": {"lit": "yes", "surface": "paved", "name:sv": "Cygnaeusgatan", "highway": "residential", "name:fi": "Cygnaeuksenkatu", "name": "Cygnaeuksenkatu", "maxspeed": "30", "postal_code": "00100"}, "type": "way", "nodes": [1387035932, 308783768, 248160943, 1001543807, 740307838]}, {"id": 15242126, "tags": {"surface": "asphalt", "name:sv": "\u00c4ngh\u00f6rnsv\u00e4gen", "name:fi": "Niittykulmantie", "source": "survey", "highway": "residential", "name": "Niittykulmantie", "maxspeed": "30", "postal_code": "00440", "parking:right": "no", "lit": "yes", "oneway": "no", "snowplowing": "yes", "source:name:sv": "Digiroad.fi"}, "type": "way", "nodes": [1987642182, 143490832, 143490851, 624016900, 143490827]}, {"id": 18643115, "tags": {"lit": "yes", "surface": "paved", "snowplowing": "yes", "name:sv": "Luthergatan", "highway": "residential", "parking:lane:both": "no_stopping", "name:fi": "Lutherinkatu", "name": "Lutherinkatu", "maxspeed": "40", "postal_code": "00100"}, "type": "way", "nodes": [1383870960, 60170127]}, {"id": 23210263, "tags": {"source:hazard": "traffic_sign", "parking:condition:both:default": "free", "surface": "cobblestone", "name:sv": "Apollogatan", "parking:condition:both": "ticket", "snowplowing": "yes", "parking:lane:both": "parallel", "highway": "residential", "lit": "yes", "maxspeed": "30", "postal_code": "00100", "hazard": "children", "parking:condition:both:residents": "F", "lanes": "2", "parking:condition:both:time_interval": "Mo-Fr 09:00-21:00", "name": "Apollonkatu", "parking:ticket:zone": "2", "parking:lane:both:parallel": "on_street", "name:fi": "Apollonkatu", "parking:lane:left:capacity:free:hourly:winter": "Thu 13: 1", "zone:traffic": "FI:urban"}, "type": "way", "nodes": [1387035990, 425871684]}, {"id": 23908449, "tags": {"surface": "paved", "parking:condition:reason": "junction", "name:sv": "Museigatan", "name:fi": "Museokatu", "parking:lane:both": "no_stopping", "highway": "residential", "name": "Museokatu", "maxspeed": "40", "postal_code": "00100", "lit": "yes", "lanes": "2", "snowplowing": "yes"}, "type": "way", "nodes": [1385680122, 25417074]}, {"id": 23908450, "tags": {"surface": "cobblestone", "lit": "yes", "lanes": "2", "parking:condition:reason": "junction", "name:sv": "Museigatan", "name:fi": "Museokatu", "parking:lane:both": "no_stopping", "highway": "residential", "name": "Museokatu", "maxspeed": "40", "postal_code": "00100"}, "type": "way", "nodes": [25417074, 300933123, 316007406]}, {"id": 27428496, "tags": {"surface": "paved", "snowplowing": "yes", "lit": "yes", "lanes": "2", "paved:date": "2014", "name:sv": "Oksanensgatan", "name:fi": "Oksasenkatu", "highway": "residential", "name": "Oksasenkatu", "maxspeed": "30", "postal_code": "00100"}, "type": "way", "nodes": [1040781055, 300933098, 1382693091, 3094260593]}, {"id": 28286894, "tags": {"surface": "paved", "lit": "yes", "lanes": "2", "snowplowing": "yes", "name:sv": "Auroragatan", "name:fi": "Aurorankatu", "parking:lane:both": "no_stopping", "highway": "residential", "name": "Aurorankatu", "maxspeed": "30", "postal_code": "00100"}, "type": "way", "nodes": [60071962, 296556285, 936675315]}, {"id": 29712022, "tags": {"name": "Hopeatie", "name:sv": "Silverv\u00e4gen", "highway": "residential", "name:fi": "Hopeatie", "surface": "asphalt", "maxspeed": "40", "postal_code": "00440"}, "type": "way", "nodes": [36813488, 631148269, 3372327324, 304981614, 36813489, 305031451, 36813490, 36813491, 36813492, 36813493, 36813494, 2422497039]}, {"id": 30141086, "tags": {"lit": "yes", "surface": "paved", "name:sv": "Silverv\u00e4gen", "highway": "residential", "parking:lane:left": "no_stopping", "name:fi": "Hopeatie", "name": "Hopeatie", "maxspeed": "40", "postal_code": "00440"}, "type": "way", "nodes": [143569493, 36815896, 3372173694, 36813486, 659668179, 36816608, 36813561]}, {"id": 30141087, "tags": {"name": "Hopeatie", "name:sv": "Silverv\u00e4gen", "highway": "residential", "name:fi": "Hopeatie", "surface": "asphalt", "maxspeed": "40", "postal_code": "00440"}, "type": "way", "nodes": [36813561, 36813488]}, {"id": 33968993, "tags": {"surface": "cobblestone", "lit": "yes", "lanes": "2", "name:sv": "F\u00e4nrik St\u00e5ls gata", "name:fi": "V\u00e4nrikki Stoolin katu", "parking:lane:both": "no_stopping", "highway": "residential", "name": "V\u00e4nrikki Stoolin katu", "maxspeed": "30", "postal_code": "00100"}, "type": "way", "nodes": [314984065, 711667170]}, {"id": 34390872, "tags": {"parking:condition:both:default": "free", "surface": "cobblestone", "name:sv": "Cygnaeusgatan", "parking:condition:both": "ticket", "snowplowing": "yes", "parking:lane:both": "parallel", "highway": "residential", "lit": "yes", "maxspeed": "30", "postal_code": "00100", "parking:condition:both:residents": "F", "lanes": "2", "parking:condition:both:time_interval": "Mo-Fr 09:00-21:00", "name": "Cygnaeuksenkatu", "parking:ticket:zone": "2", "parking:lane:both:parallel": "on_street", "name:fi": "Cygnaeuksenkatu"}, "type": "way", "nodes": [60281125, 309120645, 914719178]}, {"id": 35067049, "tags": {"source:hazard": "traffic_sign", "surface": "paved", "name:sv": "Sofielundsgatan", "name:fi": "Sofianlehdonkatu", "parking:lane:both": "no_stopping", "highway": "residential", "name": "Sofianlehdonkatu", "maxspeed": "30", "postal_code": "00610", "hazard": "children", "lit": "yes", "lanes": "2", "snowplowing:category": "2", "snowplowing": "yes"}, "type": "way", "nodes": [34658623, 345790974, 755858278]}, {"id": 35067050, "tags": {"surface": "paved", "paved:date:lane:right": "2011", "name:sv": "Sofielundsgatan", "snowplowing": "yes", "parking:lane:left": "no_parking", "highway": "residential", "name": "Sofianlehdonkatu", "maxspeed": "40", "postal_code": "00610", "lit": "yes", "lanes": "2", "parking:lane:right": "no_parking", "snowplowing:category": "2", "name:fi": "Sofianlehdonkatu"}, "type": "way", "nodes": [411290583, 1430547942]}, {"id": 35067051, "tags": {"surface": "paved", "start_date": "1944..1960", "name:sv": "Sofielundsgatan", "name:fi": "Sofianlehdonkatu", "parking:lane:both": "no_parking", "highway": "residential", "snowplowing:category": "2", "maxspeed": "30", "postal_code": "00610", "lit": "yes", "name": "Sofianlehdonkatu", "snowplowing": "yes"}, "type": "way", "nodes": [345568228, 34711794, 34711795, 411290584]}, {"id": 35067052, "tags": {"surface": "paved", "snowplowing": "yes", "name:sv": "Sofielundsgatan", "parking:left:placement": "dedicated", "parking:lane:left": "parallel", "highway": "residential", "name": "Sofianlehdonkatu", "maxspeed": "30", "postal_code": "00610", "start_date": "1944..1960", "lit": "yes", "parking:condition:left": "free", "parking:lane:right": "no_parking", "parking:lane:left:inline": "on_street", "name:fi": "Sofianlehdonkatu"}, "type": "way", "nodes": [411290584, 537229482]}, {"id": 35068463, "tags": {"parking:condition:both:default": "free", "surface": "paved", "parking:condition:both:maxstay": "4 h", "name:sv": "Lappogatan", "parking:condition:both": "ticket", "snowplowing": "yes", "parking:lane:both": "parallel", "highway": "residential", "lit": "yes", "maxspeed": "30", "parking:lane:both:inline": "on_street", "parking:condition:both:residents": "F", "parking:condition:both:time_interval": "Mo-Fr 09:00-19:00", "name": "Lapuankatu", "postal_code": "00100", "name:fi": "Lapuankatu"}, "type": "way", "nodes": [298645345, 976570979]}, {"id": 35068802, "tags": {"lit": "yes", "surface": "cobblestone", "name:sv": "F\u00e4nrik St\u00e5ls gata", "highway": "residential", "parking:lane:both": "no_stopping", "name:fi": "V\u00e4nrikki Stoolin katu", "name": "V\u00e4nrikki Stoolin katu", "maxspeed": "30", "postal_code": "00100"}, "type": "way", "nodes": [312058789, 1387035933, 1001543608, 711667163]}, {"id": 35333384, "tags": {"surface": "cobblestone", "lit": "yes", "lanes": "2", "name:sv": "Fj\u00e4lldalsgatan", "name:fi": "Tunturikatu", "highway": "residential", "name": "Tunturikatu", "maxspeed": "30", "postal_code": "00100"}, "type": "way", "nodes": [414170280, 425871687, 509285555, 509285554, 509285557, 1382693093, 414170279]}, {"id": 35333385, "tags": {"parking:condition:both:default": "free", "surface": "paved", "snowplowing": "yes", "name:sv": "Fj\u00e4lldalsgatan", "parking:condition:both": "ticket", "paved:date": "2014", "parking:lane:both": "parallel", "highway": "residential", "lit": "yes", "maxspeed": "30", "postal_code": "00100", "parking:condition:both:residents": "F", "lanes": "2", "parking:condition:both:time_interval": "Mo-Fr 09:00-21:00", "name": "Tunturikatu", "parking:ticket:zone": "2", "parking:lane:both:parallel": "on_street", "name:fi": "Tunturikatu"}, "type": "way", "nodes": [414170279, 250801468]}, {"id": 35333386, "tags": {"name:sv": "Cygnaeusgatan", "parking:condition:left:default": "free", "name:fi": "Cygnaeuksenkatu", "parking:lane:left": "parallel", "highway": "residential", "surface": "paved", "maxspeed": "30", "postal_code": "00100", "name": "Cygnaeuksenkatu", "lanes": "2", "parking:condition:left": "ticket", "parking:lane:right": "no_stopping", "parking:condition:left:residents": "F", "parking:lane:left:inline": "painted_area_only", "parking:condition:left:time_interval": "Mo-Fr 09:00-19:00"}, "type": "way", "nodes": [254400362, 1382644825]}, {"id": 36583915, "tags": {"lit": "yes", "surface": "cobblestone", "name:sv": "Oksanensgatan", "highway": "residential", "parking:lane:both": "no_stopping", "name:fi": "Oksasenkatu", "name": "Oksasenkatu", "maxspeed": "30", "postal_code": "00100"}, "type": "way", "nodes": [425871683, 314983273, 1386885662]}, {"id": 36583920, "tags": {"source:hazard": "traffic_sign", "parking:condition:both:default": "free", "parking:lane:right:capacity:free:hourly:winter": "Thu 13: 0", "parking:lane:both": "parallel", "highway": "residential", "surface": "paved", "hazard": "children", "lit": "yes", "parking:condition:both:time_interval": "Mo-Fr 09:00-21:00", "parking:lane:both:parallel": "on_street", "snowplowing": "yes", "zone:traffic": "FI:urban", "parking:condition:both": "ticket", "name:sv": "Apollogatan", "parking:condition:both:residents": "F", "maxspeed": "30", "postal_code": "00100", "name": "Apollonkatu", "lanes": "2", "parking:ticket:zone": "2", "parking:lane:left:capacity:free:hourly:winter": "Thu 13: 0", "name:fi": "Apollonkatu"}, "type": "way", "nodes": [425871684, 577496602, 712332355]}, {"id": 42618388, "tags": {"surface": "paved", "lanes": "2", "name:sv": "Sofielundsgatan", "snowplowing": "yes", "parking:lane:left": "no_parking", "highway": "residential", "name": "Sofianlehdonkatu", "maxspeed": "30", "postal_code": "00610", "lit": "yes", "parking:condition:right": "disc", "parking:lane:right": "parallel", "snowplowing:category": "2", "name:fi": "Sofianlehdonkatu", "parking:condition:right:time_interval": "Mo-Fr 08:00-17:00", "parking:condition:right:maxstay": "1 h"}, "type": "way", "nodes": [532444980, 532444969]}, {"id": 42904821, "tags": {"start_date": "1944..1961", "lit": "yes", "surface": "paved", "snowplowing": "yes", "name:sv": "Sofielundsgatan", "highway": "residential", "parking:lane:both": "no_parking", "name:fi": "Sofianlehdonkatu", "name": "Sofianlehdonkatu", "maxspeed": "30", "postal_code": "00610"}, "type": "way", "nodes": [537229482, 369335336, 535183242]}, {"id": 42905782, "tags": {"source:hazard": "traffic_sign", "surface": "paved", "name:sv": "Sofielundsgatan", "parking:lane:left:placement": "dedicated", "snowplowing": "yes", "parking:lane:left": "parallel", "highway": "residential", "name": "Sofianlehdonkatu", "maxspeed": "30", "postal_code": "00610", "hazard": "children", "lit": "yes", "parking:condition:left": "free", "parking:lane:left:parallel": "on_street", "parking:lane:right": "no_parking", "name:fi": "Sofianlehdonkatu"}, "type": "way", "nodes": [537239359, 316868356, 764471548]}, {"id": 42905783, "tags": {"surface": "paved", "incline": "-2.9%", "name:sv": "Sofielundsgatan", "name:fi": "Sofianlehdonkatu", "parking:lane:both": "no_parking", "highway": "residential", "snowplowing:category": "2", "maxspeed": "30", "postal_code": "00610", "lit": "yes", "name": "Sofianlehdonkatu", "snowplowing": "yes"}, "type": "way", "nodes": [755858270, 345570599, 755858271]}, {"id": 45479338, "tags": {"surface": "paved", "lit": "yes", "lanes": "2", "snowplowing": "yes", "name:sv": "Museigatan", "name:fi": "Museokatu", "parking:lane:both": "no_stopping", "highway": "residential", "name": "Museokatu", "maxspeed": "30", "postal_code": "00100"}, "type": "way", "nodes": [718406083, 301128754, 1382693102, 301127185, 718410688]}, {"id": 45479340, "tags": {"parking:condition:right:default": "free", "parking:lane:right:diagonal": "painted_area_only", "parking:condition:reason:left": "crossing", "name:sv": "Museigatan", "parking:condition:right:residents": "F", "parking:lane:left": "no_stopping", "highway": "residential", "name": "Museokatu", "maxspeed": "30", "postal_code": "00100", "surface": "paved", "lit": "yes", "lanes": "2", "parking:lane:right": "diagonal", "parking:ticket:zone": "2", "name:fi": "Museokatu", "parking:condition:right:time_interval": "Mo-Fr 09:00-21:00"}, "type": "way", "nodes": [297294986, 3309545019]}, {"id": 45479341, "tags": {"surface": "paved", "parking:condition:reason:left": "taxi", "name:sv": "Museigatan", "snowplowing": "yes", "parking:lane:left": "no_parking", "highway": "residential", "name": "Museokatu", "maxspeed": "30", "postal_code": "00100", "parking:condition:reason:right": "junction", "lit": "yes", "lanes": "2", "parking:lane:right": "no_stopping", "parking:condition:taxi:left": "free", "name:fi": "Museokatu"}, "type": "way", "nodes": [579397487, 33125196, 1001544242, 1387035829, 297294986]}, {"id": 45479342, "tags": {"parking:condition:right:default": "free", "parking:lane:right:diagonal": "painted_area_only", "parking:condition:reason:left": "junction", "lanes": "2", "parking:condition:right:residents": "F", "parking:placement": "dedicated", "snowplowing": "yes", "parking:lane:left": "no_stopping", "highway": "residential", "name": "Museokatu", "maxspeed": "30", "postal_code": "00100", "surface": "paved", "name:sv": "Museigatan", "lit": "yes", "parking:condition:right": "ticket", "parking:lane:right": "diagonal", "parking:ticket:zone": "2", "name:fi": "Museokatu", "parking:condition:right:time_interval": "Mo-Fr 09:00-21:00"}, "type": "way", "nodes": [296549182, 1382644829, 3309545018]}, {"id": 45479343, "tags": {"surface": "paved", "lit": "yes", "lanes": "2", "lit:perceived": "poor", "name:sv": "Museigatan", "name:fi": "Museokatu", "parking:lane:both": "no_parking", "highway": "residential", "name": "Museokatu", "maxspeed": "30", "postal_code": "00100"}, "type": "way", "nodes": [579397485, 999809173]}, {"id": 50044720, "tags": {"surface": "paved", "start_date": "before 1961", "name:sv": "Lars\u00e4ngsv\u00e4gen", "name:fi": "Laurinniityntie", "source": "survey", "highway": "residential", "name": "Laurinniityntie", "maxspeed": "30", "postal_code": "00440", "lit": "yes", "bicycle": "use_sidepath", "parking:left": "no", "snowplowing": "yes"}, "type": "way", "nodes": [281873128, 3422235185, 1586069448, 143490673, 281873129, 143490676, 143490680, 2444176412, 143490699]}, {"id": 50044723, "tags": {"surface": "paved", "start_date": "before 1961", "snowplowing": "yes", "name:sv": "Lars\u00e4ngsv\u00e4gen", "highway": "residential", "source": "survey", "parking:left:placement": "inlane", "name": "Laurinniityntie", "maxspeed": "30", "postal_code": "00440", "bicycle": "use_sidepath", "lit": "yes", "maxstay:times": "Mo-Fr 06-24", "parking:left": "inline", "name:fi": "Laurinniityntie", "maxstay": "4h"}, "type": "way", "nodes": [281888319, 162255273, 281873128]}, {"id": 57016531, "tags": {"surface": "cobblestone", "snowplowing": "yes", "name:sv": "F\u00e4nrik St\u00e5ls gata", "parking:condition:left:default": "free", "name:fi": "V\u00e4nrikki Stoolin katu", "parking:lane:both": "parallel", "highway": "residential", "name": "V\u00e4nrikki Stoolin katu", "maxspeed": "30", "parking:lane:both:inline": "on_street", "lit": "yes", "lanes": "2", "parking:condition:left": "ticket", "parking:condition:left:residents": "F", "postal_code": "00100", "parking:condition:left:time_interval": "Mo-Fr 09:00-21:00", "parking:condition:right": "no_stopping"}, "type": "way", "nodes": [711667166, 711667169]}, {"id": 57016532, "tags": {"parking:condition:both:default": "free", "surface": "cobblestone", "name:sv": "F\u00e4nrik St\u00e5ls gata", "parking:condition:both": "ticket", "snowplowing": "yes", "parking:lane:both": "parallel", "highway": "residential", "lit": "yes", "maxspeed": "30", "parking:lane:both:inline": "on_street", "parking:condition:both:residents": "F", "lanes": "2", "parking:condition:both:time_interval": "Mo-Fr 09:00-21:00", "name": "V\u00e4nrikki Stoolin katu", "postal_code": "00100", "name:fi": "V\u00e4nrikki Stoolin katu"}, "type": "way", "nodes": [711667168, 711667166]}, {"id": 57016533, "tags": {"surface": "cobblestone", "lanes": "2", "name:sv": "F\u00e4nrik St\u00e5ls gata", "parking:lane:both": "parallel", "highway": "residential", "name": "V\u00e4nrikki Stoolin katu", "maxspeed": "30", "parking:lane:both:inline": "on_street", "lit": "yes", "parking:condition:right": "ticket", "parking:condition:left": "no_stopping", "parking:condition:right:residents": "F", "postal_code": "00100", "name:fi": "V\u00e4nrikki Stoolin katu", "parking:condition:right:time_interval": "Mo-Fr 09:00-21:00"}, "type": "way", "nodes": [711667170, 711667168]}, {"id": 57016534, "tags": {"surface": "cobblestone", "name:sv": "F\u00e4nrik St\u00e5ls gata", "parking:condition:right:residents": "F", "parking:lane:left": "no_parking", "highway": "residential", "parking:lane:both:inline": "on_street", "maxspeed": "30", "postal_code": "00100", "lit": "yes", "parking:condition:right": "ticket", "name": "V\u00e4nrikki Stoolin katu", "parking:lane:right": "parallel", "name:fi": "V\u00e4nrikki Stoolin katu", "parking:condition:right:time_interval": "Mo-Fr 09:00-21:00"}, "type": "way", "nodes": [711667163, 1387035939, 711667172]}, {"id": 57016535, "tags": {"surface": "cobblestone", "lit": "yes", "lanes": "2", "name:sv": "F\u00e4nrik St\u00e5ls gata", "name:fi": "V\u00e4nrikki Stoolin katu", "parking:lane:both": "no_stopping", "highway": "residential", "name": "V\u00e4nrikki Stoolin katu", "maxspeed": "30", "postal_code": "00100"}, "type": "way", "nodes": [711667165, 314983262, 1387035952, 314984065]}, {"id": 57016536, "tags": {"surface": "cobblestone", "lit": "yes", "lanes": "2", "name:sv": "F\u00e4nrik St\u00e5ls gata", "parking:lane:right": "no_stopping", "name:fi": "V\u00e4nrikki Stoolin katu", "parking:lane:left": "no_parking", "highway": "residential", "name": "V\u00e4nrikki Stoolin katu", "maxspeed": "30", "postal_code": "00100"}, "type": "way", "nodes": [711667172, 711667165]}, {"id": 57016537, "tags": {"surface": "cobblestone", "parking:condition:reason": "junction", "name:sv": "F\u00e4nrik St\u00e5ls gata", "name:fi": "V\u00e4nrikki Stoolin katu", "parking:lane:both": "no_stopping", "highway": "residential", "name": "V\u00e4nrikki Stoolin katu", "maxspeed": "30", "postal_code": "00100", "lit": "yes", "lanes": "2", "snowplowing": "yes"}, "type": "way", "nodes": [711667169, 295575675, 1387036026]}, {"id": 57041510, "tags": {"parking:lane:right:capacity:free:hourly:winter": "Thu 13: 1", "source:hazard": "traffic_sign", "surface": "paved", "name:sv": "Apollogatan", "parking:condition:both": "ticket", "snowplowing": "yes", "parking:lane:both": "parallel", "highway": "residential", "lit": "yes", "maxspeed": "30", "parking:lane:both:inline": "on_street", "hazard": "children", "parking:condition:both:residents": "F", "lanes": "2", "parking:condition:both:time_interval": "Mo-Fr 09:00-21:00", "name": "Apollonkatu", "parking:ticket:zone": "2", "parking:lane:left:capacity:free:hourly:winter": "Thu 13: 2", "postal_code": "00100", "name:fi": "Apollonkatu", "zone:traffic": "FI:urban"}, "type": "way", "nodes": [712195150, 218830470, 712195154]}, {"id": 57041512, "tags": {"surface": "paved", "parking:left:inline": "on_street", "name:sv": "Apollogatan", "name:fi": "Apollonkatu", "parking:lane:left": "parallel", "highway": "residential", "name": "Apollonkatu", "maxspeed": "30", "postal_code": "00100", "lit": "yes", "lanes": "2", "parking:condition:left": "no_parking", "parking:lane:right": "no_stopping", "parking:condition:left:time_interval": "Mo-Fr 08:00-17:00"}, "type": "way", "nodes": [712195174, 712195172]}, {"id": 57041513, "tags": {"parking:condition:right": "no_parking", "surface": "paved", "name:sv": "Apollogatan", "source:hazard": "traffic_sign", "snowplowing": "yes", "parking:lane:left": "no_stopping", "highway": "residential", "name": "Apollonkatu", "maxspeed": "30", "parking:lane:right:inline": "on_street", "hazard": "children", "lit": "yes", "lanes": "2", "parking:lane:right": "parallel", "postal_code": "00100", "name:fi": "Apollonkatu", "parking:condition:right:time_interval": "Mo-Fr 08:00-17:00", "zone:traffic": "FI:urban"}, "type": "way", "nodes": [712195158, 712250874]}, {"id": 57041514, "tags": {"surface": "paved", "lit": "yes", "lanes": "2", "name:sv": "Apollogatan", "name:fi": "Apollonkatu", "parking:lane:both": "no_stopping", "highway": "residential", "name": "Apollonkatu", "maxspeed": "30", "postal_code": "00100"}, "type": "way", "nodes": [712195172, 314983613, 1387035933]}, {"id": 57041515, "tags": {"parking:lane:right:capacity:free:hourly:winter": "Thu 13: 0", "surface": "paved", "lanes": "2", "name:sv": "Apollogatan", "name:fi": "Apollonkatu", "parking:lane:both": "parallel", "highway": "residential", "name": "Apollonkatu", "maxspeed": "30", "parking:lane:both:inline": "on_street", "lit": "yes", "parking:condition:right": "ticket", "parking:condition:left": "no_parking", "parking:condition:right:residents": "F", "postal_code": "00100", "parking:condition:left:time_interval": "Mo-Fr 08:00-17:00", "parking:condition:right:time_interval": "Mo-Fr 09:00-21:00"}, "type": "way", "nodes": [712195154, 712195174]}, {"id": 57042809, "tags": {"source:hazard": "traffic_sign", "parking:lane:both": "parallel", "highway": "residential", "surface": "paved", "parking:lane:both:inline": "on_street", "hazard": "children", "lit": "yes", "snowplowing": "yes", "parking:condition:right:time_interval": "Mo-Fr 08:00-17:00", "zone:traffic": "FI:urban", "name:sv": "Apollogatan", "parking:condition:left:time_interval": "Mo-Fr 09:00-21:00", "maxspeed": "30", "postal_code": "00100", "name": "Apollonkatu", "lanes": "2", "parking:condition:left": "ticket", "parking:condition:left:residents": "F", "parking:ticket:zone": "2", "parking:lane:left:capacity:free:hourly:winter": "Thu 13: 0", "name:fi": "Apollonkatu", "parking:condition:right": "no_parking"}, "type": "way", "nodes": [712250874, 712195150]}, {"id": 57044639, "tags": {"source:hazard": "traffic_sign", "surface": "paved", "name:sv": "Apollogatan", "name:fi": "Apollonkatu", "parking:lane:both": "no_stopping", "highway": "residential", "name": "Apollonkatu", "maxspeed": "30", "postal_code": "00100", "hazard": "children", "lit": "yes", "lanes": "2", "snowplowing": "yes", "zone:traffic": "FI:urban"}, "type": "way", "nodes": [712332353, 218830466, 712195158]}, {"id": 57044648, "tags": {"source:hazard": "traffic_sign", "parking:condition:both:default": "free", "surface": "paved", "snowplowing": "yes", "name:sv": "Apollogatan", "parking:condition:left:time_interval": "Mo-Fr 09:00-21:00", "parking:lane:left": "parallel", "highway": "residential", "name": "Apollonkatu", "maxspeed": "30", "postal_code": "00100", "hazard": "children", "lit": "yes", "lanes": "2", "parking:condition:left": "ticket", "parking:lane:right": "no_stopping", "parking:condition:left:residents": "F", "parking:lane:left:capacity:free:hourly:winter": "Thu 13: 0", "name:fi": "Apollonkatu", "parking:condition:right": "no_stopping", "zone:traffic": "FI:urban"}, "type": "way", "nodes": [712332355, 712332353]}, {"id": 57045015, "tags": {"parking:ticket:zone": "2", "parking:lane:right:diagonal": "on_street", "lanes": "2", "name:sv": "Apollogatan", "parking:lane:left": "parallel", "highway": "residential", "name": "Apollonkatu", "maxspeed": "30", "postal_code": "00100", "surface": "paved", "lit": "yes", "parking:condition:right": "ticket", "parking:condition:left": "no_stopping", "parking:condition:right:residents": "F", "parking:lane:left:inline": "on_street", "parking:lane:right": "diagonal", "name:fi": "Apollonkatu", "parking:condition:right:time_interval": "Mo-Fr 09:00-21:00"}, "type": "way", "nodes": [712352940, 712352939]}, {"id": 57045016, "tags": {"parking:ticket:zone": "2", "parking:lane:right:diagonal": "painted_area_only", "name:sv": "Apollogatan", "parking:condition:both": "ticket", "parking:lane:left": "parallel", "highway": "residential", "lit": "yes", "maxspeed": "30", "postal_code": "00100", "parking:condition:both:residents": "F", "lanes": "2", "parking:condition:both:time_interval": "Mo-Fr 09:00-21:00", "name": "Apollonkatu", "parking:lane:left:inline": "on_street", "parking:lane:right": "diagonal", "name:fi": "Apollonkatu", "surface": "paved"}, "type": "way", "nodes": [712352939, 218875623, 4749116221, 577498614, 712352941]}, {"id": 57045279, "tags": {"surface": "cobblestone", "name:sv": "F\u00e4nrik St\u00e5ls gata", "name:fi": "V\u00e4nrikki Stoolin katu", "parking:lane:both": "parallel", "highway": "residential", "name": "V\u00e4nrikki Stoolin katu", "maxspeed": "30", "parking:lane:both:inline": "on_street", "lit": "yes", "parking:condition:right": "no_stopping", "parking:condition:left": "ticket", "parking:condition:left:residents": "F", "postal_code": "00100", "parking:condition:left:time_interval": "Mo-Fr 09:00-21:00"}, "type": "way", "nodes": [712361377, 712361371]}, {"id": 57045280, "tags": {"parking:condition:both:default": "free", "surface": "cobblestone", "name:sv": "F\u00e4nrik St\u00e5ls gata", "parking:condition:both": "ticket", "parking:lane:both": "parallel", "highway": "residential", "lit": "yes", "maxspeed": "30", "parking:lane:both:inline": "on_street", "parking:condition:both:residents": "F", "parking:condition:both:time_interval": "Mo-Fr 09:00-21:00", "name": "V\u00e4nrikki Stoolin katu", "postal_code": "00100", "name:fi": "V\u00e4nrikki Stoolin katu"}, "type": "way", "nodes": [712361373, 712361377]}, {"id": 57045281, "tags": {"surface": "cobblestone", "parking:condition:right:residents": "F", "name:sv": "F\u00e4nrik St\u00e5ls gata", "parking:lane:both": "parallel", "highway": "residential", "name": "V\u00e4nrikki Stoolin katu", "maxspeed": "30", "parking:lane:both:inline": "on_street", "lit": "yes", "parking:condition:right": "ticket", "parking:condition:left": "no_stopping", "postal_code": "00100", "name:fi": "V\u00e4nrikki Stoolin katu", "parking:condition:right:time_interval": "Mo-Fr 09:00-19:00"}, "type": "way", "nodes": [712361375, 712361373]}, {"id": 57045283, "tags": {"lit": "yes", "surface": "cobblestone", "name:sv": "F\u00e4nrik St\u00e5ls gata", "highway": "residential", "parking:lane:both": "no_stopping", "name:fi": "V\u00e4nrikki Stoolin katu", "name": "V\u00e4nrikki Stoolin katu", "maxspeed": "30", "postal_code": "00100"}, "type": "way", "nodes": [712361371, 312058789]}, {"id": 57045342, "tags": {"parking:lane:right:capacity:free:hourly:winter": "Thu 13: 2", "surface": "cobblestone", "name:sv": "Apollogatan", "parking:condition:both": "ticket", "snowplowing": "yes", "parking:lane:both": "parallel", "highway": "residential", "lit": "yes", "maxspeed": "30", "parking:lane:both:inline": "on_street", "parking:condition:both:residents": "F", "lanes": "2", "parking:condition:both:time_interval": "Mo-Fr 09:00-21:00", "name": "Apollonkatu", "parking:lane:left:capacity:free:hourly:winter": "Thu 13: 0", "postal_code": "00100", "name:fi": "Apollonkatu", "zone:traffic": "FI:urban"}, "type": "way", "nodes": [712369269, 712369271]}, {"id": 57045343, "tags": {"surface": "cobblestone", "lit": "yes", "lanes": "2", "name:sv": "Apollogatan", "name:fi": "Apollonkatu", "parking:lane:both": "no_stopping", "highway": "residential", "name": "Apollonkatu", "maxspeed": "30", "postal_code": "00100"}, "type": "way", "nodes": [712369271, 314983260, 1387035952]}, {"id": 57888699, "tags": {"surface": "paved", "lit": "yes", "lanes": "2", "snowplowing": "yes", "name:sv": "Museigatan", "name:fi": "Museokatu", "parking:lane:both": "no_stopping", "highway": "residential", "name": "Museokatu", "maxspeed": "30", "postal_code": "00100"}, "type": "way", "nodes": [718405336, 301128767, 2126026324]}, {"id": 57888701, "tags": {"surface": "paved", "parking:lane:right:diagonal": "painted_area_only", "name:sv": "Museigatan", "parking:condition:both": "ticket", "parking:placement": "dedicated", "parking:lane:left:parallel": "on_street", "snowplowing": "yes", "parking:lane:left": "parallel", "highway": "residential", "lit": "yes", "maxspeed": "30", "postal_code": "00100", "parking:condition:both:residents": "F", "lanes": "2", "parking:condition:both:time_interval": "Mo-Fr 09:00-21:00", "name": "Museokatu", "parking:lane:right": "diagonal", "name:fi": "Museokatu"}, "type": "way", "nodes": [718405335, 718405336]}, {"id": 57888761, "tags": {"parking:condition:both:default": "free", "parking:lane:right:diagonal": "painted_area_only", "snowplowing": "yes", "name:sv": "Museigatan", "parking:condition:both": "ticket", "parking:placement": "dedicated", "parking:ticket:zone": "2", "parking:lane:left": "parallel", "highway": "residential", "lit": "yes", "maxspeed": "30", "postal_code": "00100", "parking:condition:both:residents": "F", "lanes": "2", "parking:condition:both:time_interval": "Mo-Fr 09:00-21:00", "name": "Museokatu", "parking:lane:left:inline": "on_street", "parking:lane:right": "diagonal", "name:fi": "Museokatu", "surface": "paved"}, "type": "way", "nodes": [718406091, 718406083]}, {"id": 57888767, "tags": {"surface": "paved", "name:sv": "Museigatan", "parking:placement": "dedicated", "highway": "residential", "name": "Museokatu", "maxspeed": "30", "postal_code": "00100", "parking:right": "diagonal", "lit": "yes", "lanes": "2", "parking:left": "inline", "parking:fee:times": "Mo-Fr 09-19", "name:fi": "Museokatu"}, "type": "way", "nodes": [718406092, 398962722, 718405335]}, {"id": 57888768, "tags": {"surface": "paved", "parking:lane:right:diagonal": "painted_area_only", "name:sv": "Museigatan", "parking:condition:both": "ticket", "parking:placement": "dedicated", "parking:lane:left:parallel": "on_street", "snowplowing": "yes", "parking:lane:left": "parallel", "highway": "residential", "lit": "yes", "maxspeed": "30", "postal_code": "00100", "parking:condition:both:residents": "F", "lanes": "2", "parking:condition:both:time_interval": "Mo-Fr 09:00-21:00", "name": "Museokatu", "parking:ticket:zone": "2", "parking:lane:right": "diagonal", "name:fi": "Museokatu", "zone:traffic": "FI:urban"}, "type": "way", "nodes": [718406090, 2702884947]}, {"id": 57888769, "tags": {"surface": "paved", "name:sv": "Museigatan", "parking:lane:left": "parallel", "highway": "residential", "name": "Museokatu", "maxspeed": "30", "postal_code": "00100", "lit": "yes", "lanes": "2", "parking:lane:right": "no_stopping", "parking:lane:left:inline": "on_street", "name:fi": "Museokatu"}, "type": "way", "nodes": [718406089, 1382693098, 718406092]}, {"id": 57889141, "tags": {"parking:condition:both:default": "free", "surface": "paved", "name:sv": "Oksanensgatan", "parking:condition:both": "ticket", "parking:lane:both": "parallel", "highway": "residential", "lit": "yes", "maxspeed": "30", "postal_code": "00100", "parking:condition:both:residents": "F", "parking:condition:both:time_interval": "Mo-Fr 09:00-21:00", "name": "Oksasenkatu", "parking:ticket:zone": "2", "parking:lane:both:parallel": "on_street", "name:fi": "Oksasenkatu"}, "type": "way", "nodes": [718409669, 425871683]}, {"id": 57889142, "tags": {"surface": "paved", "name:sv": "Oksanensgatan", "parking:condition:left:default": "free", "name:fi": "Oksasenkatu", "parking:lane:left": "parallel", "highway": "residential", "name": "Oksasenkatu", "maxspeed": "30", "postal_code": "00100", "lit": "yes", "parking:condition:left": "ticket", "parking:lane:left:parallel": "on_street", "parking:condition:left:residents": "F", "parking:ticket:zone": "2", "parking:lane:right": "no_parking", "parking:condition:left:time_interval": "Mo-Fr 09:00-21:00"}, "type": "way", "nodes": [718409676, 577498607, 718409669]}, {"id": 57889143, "tags": {"surface": "paved", "name:sv": "Oksanensgatan", "parking:condition:right:residents": "F", "parking:lane:left": "no_parking", "highway": "residential", "name": "Oksasenkatu", "maxspeed": "30", "parking:lane:right:parallel": "on_street", "lit": "yes", "parking:condition:right": "ticket", "parking:lane:right": "parallel", "postal_code": "00100", "name:fi": "Oksasenkatu", "parking:condition:right:time_interval": "Mo-Fr 09:00-21:00"}, "type": "way", "nodes": [718409679, 718409676]}, {"id": 57889154, "tags": {"parking:condition:both:default": "free", "surface": "paved", "name:sv": "Oksanensgatan", "parking:condition:both": "ticket", "parking:lane:both": "parallel", "highway": "residential", "lit": "yes", "maxspeed": "30", "postal_code": "00100", "parking:condition:both:residents": "F", "parking:condition:both:time_interval": "Mo-Fr 09:00-21:00", "name": "Oksasenkatu", "parking:lane:both:parallel": "on_street", "name:fi": "Oksasenkatu"}, "type": "way", "nodes": [718410033, 718409679]}, {"id": 57889187, "tags": {"parking:condition:both:default": "free", "parking:lane:right:diagonal": "painted_area_only", "name:sv": "Museigatan", "parking:condition:both": "ticket", "parking:placement": "dedicated", "parking:lane:left:parallel": "on_street", "snowplowing": "yes", "parking:lane:both": "parallel", "parking:lane:left": "parallel", "highway": "residential", "lit": "yes", "maxspeed": "30", "postal_code": "00100", "parking:condition:both:residents": "F", "lanes": "2", "parking:condition:both:time_interval": "Mo-Fr 09:00-21:00", "name": "Museokatu", "parking:ticket:zone": "2", "parking:lane:right": "diagonal", "name:fi": "Museokatu", "surface": "paved"}, "type": "way", "nodes": [718410688, 579397485]}, {"id": 59676987, "tags": {"lit": "yes", "surface": "paved", "name:sv": "Cygnaeusgatan", "highway": "residential", "name:fi": "Cygnaeuksenkatu", "name": "Cygnaeuksenkatu", "maxspeed": "30", "postal_code": "00100"}, "type": "way", "nodes": [740307841, 297294976, 162364738, 309120648, 60281125]}, {"id": 59676988, "tags": {"surface": "paved", "name:sv": "Cygnaeusgatan", "parking:condition:both": "ticket", "parking:lane:both": "parallel", "highway": "residential", "lit": "yes", "maxspeed": "30", "parking:lane:both:inline": "on_street", "parking:condition:both:residents": "F", "parking:condition:both:time_interval": "Mo-Fr 09:00-21:00", "name": "Cygnaeuksenkatu", "parking:ticket:zone": "2", "postal_code": "00100", "name:fi": "Cygnaeuksenkatu"}, "type": "way", "nodes": [740307838, 740307841]}, {"id": 60542715, "tags": {"parking:lane:both:parallel": "on_street", "surface": "paved", "parking:lane:right:placement": "inlane", "lanes": "2", "name:sv": "Sofielundsgatan", "parking:lane:left:placement": "dedicated", "snowplowing": "yes", "parking:lane:both": "parallel", "highway": "residential", "name": "Sofianlehdonkatu", "maxspeed": "30", "postal_code": "00610", "lit": "yes", "parking:condition:right": "disc", "parking:condition:left": "free", "snowplowing:category": "2", "name:fi": "Sofianlehdonkatu", "parking:condition:right:time_interval": "Mo-Fr 08:00-17:00", "parking:condition:right:maxstay": "1 h"}, "type": "way", "nodes": [755858263, 364746169, 764481356]}, {"id": 60542716, "tags": {"source:hazard": "traffic_sign", "parking:condition:right:maxstay": "1 h", "parking:lane:both": "parallel", "highway": "residential", "surface": "paved", "hazard": "children", "lit": "yes", "parking:lane:right:placement": "dedicated", "snowplowing": "yes", "parking:condition:right:time_interval": "Mo-Fr 08:00-17:00", "parking:lane:right:parallel": "on_street", "name:sv": "Sofielundsgatan", "parking:lane:left:placement": "inlane", "parking:condition:left:time_interval": "Mo-Fr 08:00-17:00", "snowplowing:category": "2", "maxspeed": "30", "postal_code": "00610", "name": "Sofianlehdonkatu", "lanes": "2", "parking:condition:left": "no_parking", "name:fi": "Sofianlehdonkatu", "parking:condition:right": "disc"}, "type": "way", "nodes": [755858274, 2652972035]}, {"id": 60542717, "tags": {"surface": "paved", "parking:lane:right:placement": "dedicated", "lanes": "2", "name:sv": "Sofielundsgatan", "snowplowing": "yes", "parking:lane:left": "no_parking", "highway": "residential", "name": "Sofianlehdonkatu", "maxspeed": "30", "parking:lane:right:parallel": "on_street", "snowplowing:category": "2", "lit": "yes", "parking:condition:right": "disc", "parking:condition:left": "no_parking", "parking:lane:right": "parallel", "postal_code": "00610", "name:fi": "Sofianlehdonkatu", "parking:condition:right:time_interval": "Mo-Fr 08:00-17:00", "parking:condition:right:maxstay": "1 h"}, "type": "way", "nodes": [755858279, 532444980]}, {"id": 60542718, "tags": {"surface": "paved", "incline": "-2.9%", "name:sv": "Sofielundsgatan", "snowplowing": "yes", "parking:lane:left": "no_stopping", "highway": "residential", "name": "Sofianlehdonkatu", "maxspeed": "30", "postal_code": "00610", "lit": "yes", "parking:condition:right": "free", "parking:lane:right": "parallel", "name:fi": "Sofianlehdonkatu", "parking:lane:right:parallel": "on_street"}, "type": "way", "nodes": [755858281, 755858250]}, {"id": 60542719, "tags": {"surface": "paved", "incline": "-2.9%", "name:sv": "Sofielundsgatan", "snowplowing": "yes", "parking:lane:left": "no_stopping", "highway": "residential", "name": "Sofianlehdonkatu", "maxspeed": "30", "postal_code": "00610", "lit": "yes", "parking:condition:right": "free", "parking:lane:right": "parallel", "name:fi": "Sofianlehdonkatu", "parking:lane:right:parallel": "on_street"}, "type": "way", "nodes": [755858250, 755858270]}, {"id": 60542720, "tags": {"source:hazard": "traffic_sign", "surface": "paved", "name:sv": "Sofielundsgatan", "snowplowing": "yes", "parking:lane:left": "no_stopping", "highway": "residential", "name": "Sofianlehdonkatu", "maxspeed": "30", "postal_code": "00610", "hazard": "children", "lit": "yes", "lanes": "2", "parking:right:maxstay": "1h", "parking:lane:right": "parallel", "snowplowing:category": "2", "name:fi": "Sofianlehdonkatu"}, "type": "way", "nodes": [755858278, 755858274]}, {"id": 60542721, "tags": {"lit": "yes", "surface": "paved", "snowplowing": "yes", "name:sv": "Sofielundsgatan", "highway": "residential", "parking:lane:both": "no_stopping", "name:fi": "Sofianlehdonkatu", "name": "Sofianlehdonkatu", "maxspeed": "30", "postal_code": "00610"}, "type": "way", "nodes": [755858276, 34711792, 755858268]}, {"id": 60542722, "tags": {"surface": "paved", "incline": "-2.9%", "name:sv": "Sofielundsgatan", "snowplowing": "yes", "parking:lane:left": "no_stopping", "highway": "residential", "name": "Sofianlehdonkatu", "maxspeed": "30", "postal_code": "00610", "lit": "yes", "parking:condition:right": "free", "parking:lane:right": "parallel", "name:fi": "Sofianlehdonkatu", "parking:lane:right:parallel": "on_street"}, "type": "way", "nodes": [755858268, 755858281]}, {"id": 60542723, "tags": {"surface": "paved", "parking:lane:left": "parallel", "name:sv": "Sofielundsgatan", "parking:lane:left:placement": "inlane", "snowplowing": "yes", "parking:lane:left:parallel": "on_street", "highway": "residential", "name": "Sofianlehdonkatu", "maxspeed": "30", "postal_code": "00610", "lit": "yes", "parking:condition:left": "free", "parking:lane:right": "no_parking", "snowplowing:category": "2", "name:fi": "Sofianlehdonkatu"}, "type": "way", "nodes": [755858266, 345803552, 345569230, 34711793, 345568228]}, {"id": 60542724, "tags": {"surface": "paved", "name:sv": "Sofielundsgatan", "name:fi": "Sofianlehdonkatu", "parking:lane:both": "no_parking", "highway": "residential", "snowplowing:category": "2", "maxspeed": "30", "postal_code": "00610", "lit": "yes", "lanes": "2", "name": "Sofianlehdonkatu", "snowplowing": "yes"}, "type": "way", "nodes": [532444969, 755858273]}, {"id": 60542725, "tags": {"parking:lane:both:parallel": "on_street", "surface": "paved", "incline": "-2.9%", "name:sv": "Sofielundsgatan", "parking:condition:both": "free", "snowplowing": "yes", "parking:lane:both": "parallel", "highway": "residential", "name": "Sofianlehdonkatu", "maxspeed": "30", "postal_code": "00610", "lit": "yes", "snowplowing:category": "2", "name:fi": "Sofianlehdonkatu", "parking:lane:both:placement": "inlane"}, "type": "way", "nodes": [755858271, 559486123, 365979545, 365979546, 755858266]}, {"id": 60542726, "tags": {"surface": "paved", "parking:lane:right:placement": "inlane", "name:sv": "Sofielundsgatan", "parking:lane:left:placement": "dedicated", "snowplowing": "yes", "parking:lane:left": "parallel", "highway": "residential", "name": "Sofianlehdonkatu", "maxspeed": "30", "postal_code": "00610", "snowplowing:category": "2", "lit": "yes", "lanes": "2", "parking:condition:left": "free", "parking:lane:left:parallel": "on_street", "parking:lane:right": "no_parking", "name:fi": "Sofianlehdonkatu"}, "type": "way", "nodes": [755858273, 755858263]}, {"id": 60726070, "tags": {"source:hazard": "traffic_sign", "surface": "paved", "name:sv": "Sofielundsgatan", "name:fi": "Sofianlehdonkatu", "parking:lane:both": "no_stopping", "highway": "residential", "name": "Sofianlehdonkatu", "maxspeed": "30", "postal_code": "00610", "hazard": "children", "lit": "yes", "lanes": "2", "snowplowing:category": "2", "snowplowing": "yes"}, "type": "way", "nodes": [760190398, 34658623]}, {"id": 61097722, "tags": {"lit": "yes", "surface": "paved", "snowplowing": "yes", "name:sv": "Sofielundsgatan", "parking:lane:right": "no_stopping", "highway": "residential", "parking:lane:left": "no_parking", "name:fi": "Sofianlehdonkatu", "name": "Sofianlehdonkatu", "maxspeed": "30", "postal_code": "00610"}, "type": "way", "nodes": [764471548, 764471545, 755858276]}, {"id": 61099523, "tags": {"surface": "paved", "parking:condition:right:maxstay": "1 h", "name:sv": "Sofielundsgatan", "snowplowing": "yes", "parking:lane:left": "no_parking", "highway": "residential", "name": "Sofianlehdonkatu", "maxspeed": "30", "parking:lane:right:parallel": "on_street", "snowplowing:category": "2", "lit": "yes", "parking:condition:right": "disc", "parking:lane:right:placement": "inlane", "parking:lane:right": "parallel", "postal_code": "00610", "name:fi": "Sofianlehdonkatu", "parking:condition:right:time_interval": "Mo-Fr 08:00-17:00"}, "type": "way", "nodes": [764481356, 316868352, 764481359]}, {"id": 61099525, "tags": {"parking:lane:both:parallel": "on_street", "surface": "paved", "parking:lane:right:placement": "inlane", "lanes": "2", "name:sv": "Sofielundsgatan", "parking:lane:left:placement": "dedicated", "snowplowing": "yes", "parking:lane:both": "parallel", "highway": "residential", "name": "Sofianlehdonkatu", "maxspeed": "30", "postal_code": "00610", "lit": "yes", "parking:condition:right": "disc", "parking:condition:left": "free", "snowplowing:category": "2", "name:fi": "Sofianlehdonkatu", "parking:condition:right:time_interval": "Mo-Fr 08:00-17:00", "parking:condition:right:maxstay": "1 h"}, "type": "way", "nodes": [764481359, 537239359]}, {"id": 71299404, "tags": {"snowplowing": "yes", "lit": "yes", "surface": "cobblestone", "parking:condition:reason": "junction", "name:sv": "Museigatan", "highway": "residential", "parking:lane:both": "no_stopping", "name:fi": "Museokatu", "name": "Museokatu", "maxspeed": "40", "postal_code": "00100"}, "type": "way", "nodes": [333533903, 299905549, 1385680116]}, {"id": 71299407, "tags": {"lit": "yes", "surface": "cobblestone", "snowplowing": "yes", "name:sv": "Museigatan", "highway": "residential", "parking:lane:both": "no_parking", "name:fi": "Museokatu", "name": "Museokatu", "maxspeed": "40", "postal_code": "00100"}, "type": "way", "nodes": [848601465, 333533903]}, {"id": 71299409, "tags": {"surface": "cobblestone", "name:sv": "Museigatan", "parking:condition:both": "ticket", "parking:lane:left": "parallel", "highway": "residential", "lit": "yes", "maxspeed": "30", "postal_code": "00100", "parking:condition:both:residents": "F", "parking:condition:both:time_interval": "Mo-Fr 09:00-19:00", "parking:both:placement": "dedicated", "name": "Museokatu", "parking:lane:right": "diagonal", "name:fi": "Museokatu"}, "type": "way", "nodes": [848601467, 1385680127, 1014002358, 1385680124, 33125187, 1385680120, 1386885411, 848601465]}, {"id": 73046100, "tags": {"surface": "paved", "snowplowing": "yes", "name:sv": "Fj\u00e4lldalsgatan", "parking:condition:both": "ticket", "paved:date": "2014", "parking:lane:both": "parallel", "highway": "residential", "lit": "yes", "maxspeed": "30", "parking:lane:both:inline": "on_street", "parking:condition:both:residents": "F", "lanes": "2", "parking:condition:both:time_interval": "Mo-Fr 09:00-21:00", "name": "Tunturikatu", "parking:ticket:zone": "2", "postal_code": "00100", "name:fi": "Tunturikatu"}, "type": "way", "nodes": [333533221, 866969496]}, {"id": 73046102, "tags": {"surface": "paved", "lit": "yes", "lanes": "2", "snowplowing": "yes", "name:sv": "Oksanensgatan", "name:fi": "Oksasenkatu", "parking:lane:both": "no_stopping", "highway": "residential", "name": "Oksasenkatu", "maxspeed": "30", "postal_code": "00100"}, "type": "way", "nodes": [866969498, 300933110, 1382693102, 301128769, 718410033]}, {"id": 73046105, "tags": {"parking:condition:both:default": "free", "surface": "paved", "name:sv": "Oksanensgatan", "parking:condition:both": "ticket", "snowplowing": "yes", "parking:lane:both": "parallel", "highway": "residential", "lit": "yes", "maxspeed": "30", "parking:lane:both:inline": "on_street", "parking:condition:both:residents": "F", "lanes": "2", "parking:condition:both:time_interval": "Mo-Fr 09:00-21:00", "name": "Oksasenkatu", "parking:ticket:zone": "2", "postal_code": "00100", "name:fi": "Oksasenkatu"}, "type": "way", "nodes": [866969491, 866969498]}, {"id": 73046113, "tags": {"parking:condition:both:default": "free", "surface": "paved", "snowplowing": "yes", "name:sv": "Fj\u00e4lldalsgatan", "parking:condition:both": "ticket", "paved:date": "2014", "parking:lane:both": "parallel", "highway": "residential", "lit": "yes", "maxspeed": "30", "postal_code": "00100", "parking:condition:both:residents": "F", "lanes": "2", "parking:condition:both:time_interval": "Mo-Fr 09:00-21:00", "name": "Tunturikatu", "parking:ticket:zone": "2", "parking:lane:both:parallel": "on_street", "name:fi": "Tunturikatu"}, "type": "way", "nodes": [1156110447, 1382693095, 414170280]}, {"id": 77773367, "tags": {"surface": "cobblestone", "name:sv": "Cygnaeusgatan", "name:fi": "Cygnaeuksenkatu", "parking:lane:left": "parallel", "highway": "residential", "name": "Cygnaeuksenkatu", "maxspeed": "30", "postal_code": "00100", "lit": "yes", "lanes": "2", "parking:condition:left": "ticket", "parking:lane:right": "no_stopping", "parking:condition:left:residents": "F", "parking:lane:left:inline": "painted_area_only", "parking:condition:left:time_interval": "Mo-Fr 09:00-19:00"}, "type": "way", "nodes": [914719178, 254400362]}, {"id": 80251854, "tags": {"parking:condition:both:default": "free", "surface": "paved", "snowplowing": "yes", "name:sv": "T\u00f6l\u00f6gatan", "name:fi": "T\u00f6\u00f6l\u00f6nkatu", "parking:lane:both": "parallel", "highway": "residential", "name": "T\u00f6\u00f6l\u00f6nkatu", "maxspeed": "30", "parking:lane:both:inline": "on_street", "lit": "yes", "parking:condition:right": "no_parking", "parking:condition:left": "ticket", "parking:condition:left:residents": "F", "parking:ticket:zone": "2", "postal_code": "00100", "parking:condition:left:time_interval": "Mo-Fr 09:00-19:00", "parking:condition:right:time_interval": "Mo-Fr 08:00-17:00"}, "type": "way", "nodes": [936675332, 936675317]}, {"id": 80251855, "tags": {"surface": "paved", "lit": "yes", "lanes": "2", "snowplowing": "yes", "name:sv": "Auroragatan", "name:fi": "Aurorankatu", "parking:lane:both": "no_stopping", "highway": "residential", "name": "Aurorankatu", "maxspeed": "30", "postal_code": "00100"}, "type": "way", "nodes": [936675292, 296556295, 3196174328, 1371715757, 296556305, 936675304]}, {"id": 80251856, "tags": {"lit": "yes", "surface": "paved", "snowplowing": "yes", "name:sv": "T\u00f6l\u00f6gatan", "highway": "residential", "parking:lane:both": "no_stopping", "name:fi": "T\u00f6\u00f6l\u00f6nkatu", "name": "T\u00f6\u00f6l\u00f6nkatu", "maxspeed": "30", "postal_code": "00100"}, "type": "way", "nodes": [936675317, 295570996, 1371715757]}, {"id": 80251857, "tags": {"parking:condition:both:default": "free", "surface": "paved", "snowplowing": "yes", "parking:condition:right:residents": "F", "name:sv": "T\u00f6l\u00f6gatan", "name:fi": "T\u00f6\u00f6l\u00f6nkatu", "parking:lane:both": "parallel", "highway": "residential", "name": "T\u00f6\u00f6l\u00f6nkatu", "maxspeed": "30", "parking:lane:both:inline": "on_street", "lit": "yes", "parking:condition:right": "ticket", "parking:condition:left": "no_parking", "parking:ticket:zone": "2", "postal_code": "00100", "parking:condition:left:time_interval": "Mo-Fr 08:00-17:00", "parking:condition:right:time_interval": "Mo-Fr 09:00-19:00"}, "type": "way", "nodes": [936675295, 1026094261]}, {"id": 80251858, "tags": {"parking:condition:both:default": "free", "surface": "paved", "name:sv": "Auroragatan", "parking:condition:both": "ticket", "snowplowing": "yes", "parking:lane:both": "parallel", "highway": "residential", "lit": "yes", "maxspeed": "30", "parking:lane:both:inline": "on_street", "parking:condition:both:residents": "F", "lanes": "2", "parking:condition:both:time_interval": "Mo-Fr 09:00-19:00", "name": "Aurorankatu", "parking:ticket:zone": "2", "postal_code": "00100", "name:fi": "Aurorankatu"}, "type": "way", "nodes": [936675306, 250676874, 936675292]}, {"id": 80251859, "tags": {"parking:condition:both:default": "free", "surface": "paved", "name:sv": "Auroragatan", "parking:condition:both": "ticket", "snowplowing": "yes", "parking:lane:both": "parallel", "highway": "residential", "lit": "yes", "maxspeed": "30", "parking:lane:both:inline": "on_street", "parking:condition:both:residents": "F", "lanes": "2", "parking:condition:both:time_interval": "Mo-Fr 09:00-19:00", "name": "Aurorankatu", "parking:ticket:zone": "2", "postal_code": "00100", "name:fi": "Aurorankatu"}, "type": "way", "nodes": [936675315, 1382530888]}, {"id": 80251860, "tags": {"surface": "paved", "snowplowing": "yes", "name:sv": "Auroragatan", "parking:condition:left:default": "free", "name:fi": "Aurorankatu", "parking:lane:left": "parallel", "highway": "residential", "name": "Aurorankatu", "maxspeed": "30", "postal_code": "00100", "lit": "yes", "lanes": "2", "parking:condition:left": "ticket", "parking:lane:right": "no_stopping", "parking:condition:left:residents": "F", "parking:lane:left:inline": "on_street", "parking:condition:left:time_interval": "Mo-Fr 09:00-19:00"}, "type": "way", "nodes": [1382530888, 3195449957, 936675319]}, {"id": 80251862, "tags": {"surface": "paved", "parking:condition:reason": "curve", "name:sv": "Auroragatan", "name:fi": "Aurorankatu", "parking:lane:both": "no_stopping", "highway": "residential", "name": "Aurorankatu", "maxspeed": "30", "postal_code": "00100", "lit": "yes", "lanes": "2", "snowplowing": "yes"}, "type": "way", "nodes": [936675346, 1387111577, 296922070, 296922071]}, {"id": 80251863, "tags": {"surface": "paved", "lit": "yes", "lanes": "2", "snowplowing": "yes", "name:sv": "Auroragatan", "name:fi": "Aurorankatu", "parking:lane:both": "no_parking", "highway": "residential", "name": "Aurorankatu", "maxspeed": "30", "postal_code": "00100"}, "type": "way", "nodes": [936675319, 936675306]}, {"id": 80251864, "tags": {"parking:condition:both:default": "free", "surface": "paved", "name:sv": "Auroragatan", "parking:condition:both": "ticket", "snowplowing": "yes", "parking:lane:both": "parallel", "highway": "residential", "lit": "yes", "maxspeed": "30", "parking:lane:both:inline": "on_street", "parking:condition:both:residents": "F", "lanes": "2", "parking:condition:both:time_interval": "Mo-Fr 09:00-19:00", "name": "Aurorankatu", "parking:ticket:zone": "2", "postal_code": "00100", "name:fi": "Aurorankatu"}, "type": "way", "nodes": [936675304, 564432116, 936675346]}, {"id": 80576413, "tags": {"parking:condition:both:default": "free", "surface": "paved", "name:sv": "Ilmarigatan", "parking:condition:both": "ticket", "snowplowing": "yes", "parking:lane:both": "parallel", "highway": "residential", "name": "Ilmarinkatu", "maxspeed": "30", "postal_code": "00100", "parking:condition:both:residents": "F", "lit": "yes", "lanes": "2", "parking:condition:both:time_interval": "Mo-Fr 09:00-21:00", "parking:both:placement": "dedicated", "parking:ticket:zone": "2", "name:fi": "Ilmarinkatu", "lit:perceived": "poor"}, "type": "way", "nodes": [940005849, 311961415, 311961440, 1383871006, 1385680090, 333533223]}, {"id": 80576415, "tags": {"surface": "paved", "lit": "yes", "lanes": "2", "snowplowing": "yes", "name:sv": "Ilmarigatan", "name:fi": "Ilmarinkatu", "parking:lane:both": "no_stopping", "highway": "residential", "name": "Ilmarinkatu", "maxspeed": "40", "postal_code": "00100"}, "type": "way", "nodes": [333533223, 281705829, 1385680095]}, {"id": 80576416, "tags": {"surface": "paved", "parking:condition:reason": "junction", "name:sv": "Ilmarigatan", "name:fi": "Ilmarinkatu", "parking:lane:both": "no_stopping", "highway": "residential", "name": "Ilmarinkatu", "maxspeed": "30", "postal_code": "00100", "lit": "yes", "lanes": "2", "snowplowing": "yes"}, "type": "way", "nodes": [940005850, 295569051, 60052507, 296874662, 940005845]}, {"id": 80576417, "tags": {"parking:condition:both:default": "free", "surface": "paved", "name:sv": "Ilmarigatan", "parking:condition:both": "ticket", "snowplowing": "yes", "parking:lane:both": "parallel", "highway": "residential", "lit": "yes", "maxspeed": "30", "postal_code": "00100", "parking:condition:both:residents": "F", "lanes": "2", "parking:condition:both:time_interval": "Mo-Fr 09:00-21:00", "parking:both:placement": "dedicated", "name": "Ilmarinkatu", "parking:ticket:zone": "2", "name:fi": "Ilmarinkatu"}, "type": "way", "nodes": [249109356, 940005850]}, {"id": 80576418, "tags": {"parking:condition:left:private": "CityCarClub", "surface": "paved", "parking:both:placement": "dedicated", "name:sv": "Ilmarigatan", "snowplowing": "yes", "parking:lane:both": "parallel", "highway": "residential", "name": "Ilmarinkatu", "maxspeed": "30", "parking:condition:right:time_interval": "Mo-Fr 09:00-21:00", "parking:condition:right:default": "free", "lit": "yes", "lanes": "2", "parking:condition:left": "private", "parking:condition:right:residents": "F", "parking:ticket:zone": "2", "postal_code": "00100", "name:fi": "Ilmarinkatu", "parking:condition:right": "ticket"}, "type": "way", "nodes": [940005845, 940005849]}, {"id": 83903112, "tags": {"snowplowing": "yes", "lit": "yes", "surface": "paved", "parking:condition:reason": "junction", "name:sv": "Lappogatan", "highway": "residential", "parking:lane:both": "no_stopping", "name:fi": "Lapuankatu", "name": "Lapuankatu", "maxspeed": "40", "postal_code": "00100"}, "type": "way", "nodes": [976570982, 295301680, 25416290]}, {"id": 83903113, "tags": {"parking:condition:right:default": "free", "parking:lane:right:diagonal": "painted_area_only", "parking:condition:right:maxstay": "4 h", "name:sv": "Lappogatan", "snowplowing": "yes", "parking:lane:left": "no_parking", "highway": "residential", "name": "Lapuankatu", "maxspeed": "30", "postal_code": "00100", "surface": "paved", "lit": "yes", "parking:condition:right": "ticket", "parking:condition:right:residents": "F", "parking:ticket:zone": "2", "parking:lane:right": "diagonal", "name:fi": "Lapuankatu", "parking:condition:right:time_interval": "Mo-Fr 09:00-19:00"}, "type": "way", "nodes": [976570981, 174948990]}, {"id": 83903115, "tags": {"lit": "yes", "surface": "paved", "snowplowing": "yes", "name:sv": "Lappogatan", "highway": "residential", "parking:lane:both": "no_parking", "name:fi": "Lapuankatu", "name": "Lapuankatu", "maxspeed": "30", "postal_code": "00100"}, "type": "way", "nodes": [174948990, 976570980]}, {"id": 83903117, "tags": {"parking:condition:both:default": "free", "surface": "paved", "parking:condition:both:maxstay": "4 h", "name:sv": "Lappogatan", "parking:condition:both": "ticket", "snowplowing": "yes", "parking:lane:both": "parallel", "highway": "residential", "lit": "yes", "maxspeed": "30", "parking:lane:both:inline": "on_street", "parking:condition:both:residents": "F", "parking:condition:both:time_interval": "Mo-Fr 09:00-19:00", "name": "Lapuankatu", "postal_code": "00100", "name:fi": "Lapuankatu"}, "type": "way", "nodes": [976570976, 3185196215]}, {"id": 83903118, "tags": {"lit": "yes", "surface": "paved", "snowplowing": "yes", "name:sv": "Lappogatan", "highway": "residential", "parking:lane:both": "no_stopping", "name:fi": "Lapuankatu", "name": "Lapuankatu", "maxspeed": "30", "postal_code": "00100"}, "type": "way", "nodes": [976570977, 59956368, 298645345]}, {"id": 83903119, "tags": {"parking:condition:right:default": "free", "postal_code": "00100", "parking:condition:right:maxstay": "4 h", "name:sv": "Lappogatan", "snowplowing": "yes", "parking:lane:left": "no_parking", "highway": "residential", "name": "Lapuankatu", "maxspeed": "30", "parking:lane:right:inline": "on_street", "surface": "paved", "lit": "yes", "parking:condition:right": "ticket", "parking:condition:right:residents": "F", "parking:ticket:zone": "2", "parking:lane:right": "parallel", "name:fi": "Lapuankatu", "parking:condition:right:time_interval": "Mo-Fr 09:00-19:00"}, "type": "way", "nodes": [976570980, 1385535546, 976570977]}, {"id": 83903120, "tags": {"parking:condition:both:default": "free", "surface": "paved", "snowplowing": "yes", "name:sv": "Lappogatan", "parking:condition:left:maxstay": "4 h", "name:fi": "Lapuankatu", "parking:lane:both": "parallel", "highway": "residential", "name": "Lapuankatu", "maxspeed": "30", "postal_code": "00100", "lit": "yes", "parking:condition:right": "no_parking", "parking:condition:left": "ticket", "parking:condition:left:residents": "F", "parking:condition:left:time_interval": "Mo-Fr 09:00-19:00", "parking:condition:right:time_interval": "Mo-Fr 07:00-17:00"}, "type": "way", "nodes": [976570979, 976570976]}, {"id": 83903267, "tags": {"surface": "paved", "lit": "yes", "lanes": "2", "snowplowing": "yes", "name:sv": "Ilmarigatan", "name:fi": "Ilmarinkatu", "parking:lane:both": "no_stopping", "highway": "residential", "name": "Ilmarinkatu", "maxspeed": "30", "postal_code": "00100"}, "type": "way", "nodes": [976574393, 301061333, 1383870957, 1486921568, 249109356]}, {"id": 83903268, "tags": {"surface": "paved", "lit": "yes", "lanes": "2", "snowplowing": "yes", "name:sv": "Ilmarigatan", "name:fi": "Ilmarinkatu", "parking:lane:both": "no_stopping", "highway": "residential", "name": "Ilmarinkatu", "maxspeed": "40", "postal_code": "00100"}, "type": "way", "nodes": [1383870946, 295301105, 976574394]}, {"id": 86137914, "tags": {"surface": "paved", "lit": "yes", "lanes": "2", "name:sv": "Museigatan", "name:fi": "Museokatu", "parking:lane:both": "no_stopping", "highway": "residential", "name": "Museokatu", "maxspeed": "40", "postal_code": "00100"}, "type": "way", "nodes": [999809173, 6213445202, 316007407, 300933117, 1385680122]}, {"id": 88335763, "tags": {"parking:condition:right:default": "free", "parking:lane:right:diagonal": "painted_area_only", "lanes": "2", "parking:condition:right:residents": "F", "snowplowing": "yes", "parking:lane:left": "no_parking", "highway": "residential", "name": "Museokatu", "maxspeed": "30", "parking:condition:left:reason": "bus_stop", "surface": "paved", "name:sv": "Museigatan", "lit": "yes", "parking:condition:right": "ticket", "parking:lane:right": "diagonal", "parking:ticket:zone": "2", "postal_code": "00100", "name:fi": "Museokatu", "parking:condition:right:time_interval": "Mo-Fr 09:00-21:00"}, "type": "way", "nodes": [1026094256, 296549182]}, {"id": 88335767, "tags": {"parking:condition:both:default": "free", "surface": "paved", "name:sv": "T\u00f6l\u00f6gatan", "parking:condition:both": "ticket", "snowplowing": "yes", "parking:lane:both": "parallel", "highway": "residential", "lit": "yes", "maxspeed": "30", "parking:lane:both:inline": "on_street", "parking:condition:both:residents": "F", "parking:condition:both:time_interval": "Mo-Fr 09:00-19:00", "name": "T\u00f6\u00f6l\u00f6nkatu", "parking:ticket:zone": "2", "postal_code": "00100", "name:fi": "T\u00f6\u00f6l\u00f6nkatu"}, "type": "way", "nodes": [1026094261, 936675332]}, {"id": 88335770, "tags": {"parking:condition:both:default": "free", "parking:lane:right:diagonal": "painted_area_only", "name:sv": "Museigatan", "parking:condition:both": "ticket", "snowplowing": "yes", "parking:lane:left": "parallel", "highway": "residential", "lit": "yes", "maxspeed": "30", "postal_code": "00100", "parking:condition:both:residents": "F", "lanes": "2", "parking:condition:both:time_interval": "Mo-Fr 09:00-21:00", "name": "Museokatu", "parking:ticket:zone": "2", "parking:lane:right": "diagonal", "name:fi": "Museokatu", "surface": "paved"}, "type": "way", "nodes": [1026094259, 1026094256]}, {"id": 89652653, "tags": {"parking:condition:right:default": "free", "parking:lane:left": "parallel", "highway": "residential", "loc_name": "Freda", "surface": "paved", "lit": "yes", "oneway": "yes", "parking:lane:left:inline": "on_street", "snowplowing": "yes", "parking:condition:right:time_interval": "Mo-Fr 09:00-19:00", "parking:condition:left:private": "CityCarClub", "parking:condition:right:residents": "F", "name:sv": "Fredriksgatan", "parking:lane:right:inline": "on_street", "maxspeed": "30", "postal_code": "00100", "name": "Fredrikinkatu", "lanes": "2", "parking:condition:left": "ticket", "parking:lane:right": "parallel", "parking:ticket:zone": "2", "name:fi": "Fredrikinkatu", "parking:condition:right": "private"}, "type": "way", "nodes": [1039024482, 60546333]}, {"id": 89652667, "tags": {"parking:condition:right:default": "free", "parking:condition:both": "ticket", "parking:lane:both": "parallel", "parking:lane:left": "parallel", "highway": "residential", "parking:lane:both:inline": "on_street", "parking:lane:right:inline": "on_street", "lit": "yes", "oneway": "yes", "parking:condition:both:time_interval": "Mo-Fr 09:00-21:00", "snowplowing": "yes", "parking:condition:right:time_interval": "Mo-Fr 09:00-19:00", "loc_name": "Freda", "surface": "paved", "name:sv": "Fredriksgatan", "parking:condition:right:residents": "F", "parking:condition:both:residents": "F", "maxspeed": "30", "postal_code": "00100", "name": "Fredrikinkatu", "lanes": "2", "parking:condition:left": "ticket", "parking:ticket:zone": "2", "name:fi": "Fredrikinkatu"}, "type": "way", "nodes": [1299909484, 1039024482]}, {"id": 89652675, "tags": {"loc_name": "Freda", "surface": "paved", "name:sv": "Fredriksgatan", "name:fi": "Fredrikinkatu", "highway": "residential", "name": "Fredrikinkatu", "maxspeed": "30", "postal_code": "00100", "lit": "yes", "lanes": "2", "oneway": "yes", "snowplowing": "yes"}, "type": "way", "nodes": [1382530879, 297294272, 1472183128]}, {"id": 89796517, "tags": {"snowplowing": "yes", "surface": "paved", "parking:ticket:zone": "2", "paved:date": "2014", "name:sv": "Oksanensgatan", "parking:condition:left:default": "free", "name:fi": "Oksasenkatu", "parking:lane:left": "parallel", "highway": "residential", "name": "Oksasenkatu", "maxspeed": "30", "postal_code": "00100", "lit": "yes", "lanes": "2", "parking:condition:left": "ticket", "parking:lane:right": "no_parking", "parking:condition:left:residents": "F", "parking:lane:left:inline": "on_street", "parking:condition:left:time_interval": "Mo-Fr 09:00-19:00"}, "type": "way", "nodes": [1040781062, 1040781053]}, {"id": 89796529, "tags": {"snowplowing": "yes", "surface": "paved", "parking:ticket:zone": "2", "paved:date": "2014", "name:sv": "Oksanensgatan", "parking:condition:left:default": "free", "name:fi": "Oksasenkatu", "parking:lane:left": "parallel", "highway": "residential", "name": "Oksasenkatu", "maxspeed": "30", "postal_code": "00100", "lit": "yes", "lanes": "2", "parking:condition:left": "ticket", "parking:lane:right": "no_parking", "parking:condition:left:residents": "F", "parking:lane:left:inline": "on_street", "parking:condition:left:time_interval": "Mo-Fr 09:00-21:00"}, "type": "way", "nodes": [1040781052, 1040781055]}, {"id": 89796534, "tags": {"parking:condition:both:default": "free", "parking:ticket:zone": "2", "snowplowing": "yes", "name:sv": "Oksanensgatan", "parking:condition:both": "ticket", "paved:date": "2014", "parking:lane:left": "parallel", "highway": "residential", "lit": "yes", "maxspeed": "30", "postal_code": "00100", "parking:condition:both:residents": "F", "lanes": "2", "parking:condition:both:time_interval": "Mo-Fr 09:00-19:00", "name": "Oksasenkatu", "parking:lane:left:inline": "on_street", "parking:lane:right": "perpendicular", "name:fi": "Oksasenkatu", "surface": "paved", "parking:lane:right:orthogonal": "on_street"}, "type": "way", "nodes": [1040781048, 1040781062]}, {"id": 89796537, "tags": {"surface": "paved", "name:sv": "Oksanensgatan", "paved:date": "2014", "parking:lane:both": "no_parking", "highway": "residential", "name": "Oksasenkatu", "maxspeed": "30", "postal_code": "00100", "lit": "yes", "lanes": "2", "name:fi": "Oksasenkatu", "snowplowing": "yes"}, "type": "way", "nodes": [1040781053, 1040781052]}, {"id": 89796540, "tags": {"parking:condition:right:default": "free", "surface": "paved", "snowplowing": "yes", "lanes": "2", "parking:condition:right:residents": "F", "paved:date": "2014", "parking:lane:left": "no_parking", "highway": "residential", "name": "Oksasenkatu", "maxspeed": "30", "parking:condition:left:reason": "area", "name:sv": "Oksanensgatan", "lit": "yes", "parking:condition:right": "ticket", "parking:lane:right:orthogonal": "on_street", "parking:lane:right": "perpendicular", "parking:ticket:zone": "2", "postal_code": "00100", "name:fi": "Oksasenkatu", "parking:condition:right:time_interval": "Mo-Fr 09:00-19:00"}, "type": "way", "nodes": [301128303, 3192120800, 3192120804, 1040781048]}, {"id": 99988578, "tags": {"snowplowing": "yes", "surface": "paved", "parking:condition:reason": "junction", "name:sv": "Fj\u00e4lldalsgatan", "name:fi": "Tunturikatu", "parking:lane:both": "no_stopping", "highway": "residential", "name": "Tunturikatu", "maxspeed": "30", "postal_code": "00100", "lit": "yes", "lanes": "2", "paved:date": "2014"}, "type": "way", "nodes": [866969496, 296874677, 1382693091, 296874681, 1156110447]}, {"id": 101520672, "tags": {"snowplowing": "yes", "lit": "yes", "parking:condition:reason": "turning_circle", "name:sv": "V\u00e5ggr\u00e4nden", "highway": "residential", "parking:lane:both": "no_parking", "source": "survey", "name:fi": "Vaakakuja", "name": "Vaakakuja", "maxspeed": "30", "postal_code": "00440"}, "type": "way", "nodes": [1172280552, 143569591, 281871892]}, {"id": 101520673, "tags": {"source": "http://www.hel.fi/static/public/hela/Kaupunkisuunnitteluvirasto/Suomi/Plo-esitys/2011/Ksv_2011-02-11_Lsp_liikenneasiat_1_0004_El/FE941D45-BE1F-433B-9B7E-3013C183821D/Pysakointipaikkojen_merkitseminen_Vaakakujalle.html", "snowplowing": "yes", "name:sv": "V\u00e5ggr\u00e4nden", "parking:condition:left:maxstay": "15 min", "parking:condition:left:default": "free", "name:fi": "Vaakakuja", "parking:lane:left": "parallel", "highway": "residential", "name": "Vaakakuja", "maxspeed": "30", "postal_code": "00440", "lit": "yes", "sidewalk": "no", "parking:condition:left": "disc", "parking:condition:left:time_interval": "Mo-Fr 07:00-18:00"}, "type": "way", "nodes": [1172280553, 1172280552]}, {"id": 114846199, "tags": {"parking:condition:right:default": "free", "surface": "paved", "loc_name": "Freda", "name:sv": "Fredriksgatan", "snowplowing": "yes", "parking:lane:left": "parallel", "highway": "residential", "name": "Fredrikinkatu", "maxspeed": "30", "parking:lane:right:inline": "on_street", "lit": "yes", "lanes": "2", "oneway": "yes", "parking:condition:left": "ticket", "parking:condition:right:residents": "F", "parking:ticket:zone": "2", "postal_code": "00100", "name:fi": "Fredrikinkatu", "parking:condition:right:time_interval": "Mo-Fr 09:00-19:00"}, "type": "way", "nodes": [60546333, 1299909480]}, {"id": 114846200, "tags": {"loc_name": "Freda", "surface": "paved", "name:sv": "Fredriksgatan", "parking:condition:both": "ticket", "snowplowing": "yes", "parking:lane:both": "parallel", "parking:lane:left": "no_stopping", "highway": "residential", "lit": "yes", "maxspeed": "30", "parking:lane:both:inline": "on_street", "parking:condition:both:residents": "F", "lanes": "2", "oneway": "yes", "parking:condition:both:time_interval": "Mo-Fr 09:00-19:00", "name": "Fredrikinkatu", "postal_code": "00100", "name:fi": "Fredrikinkatu"}, "type": "way", "nodes": [1472183128, 1299909484]}, {"id": 124297668, "tags": {"parking:condition:both:default": "free", "surface": "paved", "parking:condition:both:maxstay": "4 h", "name:sv": "Ilmarigatan", "parking:condition:both": "ticket", "snowplowing": "yes", "parking:lane:both": "parallel", "highway": "residential", "lit": "yes", "maxspeed": "30", "postal_code": "00100", "parking:condition:both:residents": "F", "lanes": "2", "parking:condition:both:time_interval": "Mo-Fr 09:00-21:00", "name": "Ilmarinkatu", "name:fi": "Ilmarinkatu"}, "type": "way", "nodes": [976574394, 2622096159, 976574393]}, {"id": 124486677, "tags": {"surface": "paved", "name:sv": "Fj\u00e4lldalsgatan", "paved:date": "2013", "parking:lane:both": "no_stopping", "highway": "residential", "name": "Tunturikatu", "maxspeed": "40", "postal_code": "00100", "lit": "yes", "lanes": "2", "name:fi": "Tunturikatu", "snowplowing": "yes"}, "type": "way", "nodes": [1385680097, 3094260592]}, {"id": 124681348, "tags": {"surface": "cobblestone", "lit": "yes", "lanes": "2", "parking:condition:both": "no_stopping", "name:sv": "Apollogatan", "name:fi": "Apollonkatu", "parking:lane:both": "parallel", "highway": "residential", "name": "Apollonkatu", "maxspeed": "30", "postal_code": "00100"}, "type": "way", "nodes": [295575679, 712369269]}, {"id": 126499940, "tags": {"surface": "paved", "name:sv": "V\u00e5gv\u00e4gen", "name:fi": "Vaakatie", "source": "survey", "highway": "residential", "name": "Vaakatie", "maxspeed": "40", "postal_code": "00440", "lit": "yes", "lanes": "1", "oneway": "yes", "snowplowing": "yes"}, "type": "way", "nodes": [36813119, 281870355, 3422101232, 281871903]}, {"id": 129719998, "tags": {"surface": "paved", "start_date": "before 1961", "paved:date:lane:right": "2011", "name:sv": "Sofielundsgatan", "parking:lane:left:placement": "dedicated", "snowplowing": "yes", "parking:lane:left": "parallel", "highway": "residential", "name": "Sofianlehdonkatu", "maxspeed": "30", "postal_code": "00610", "snowplowing:category": "2", "lit": "yes", "lanes": "2", "parking:condition:left": "free", "parking:lane:left:parallel": "on_street", "parking:lane:right": "no_parking", "name:fi": "Sofianlehdonkatu"}, "type": "way", "nodes": [1430547942, 34711791, 2642090075]}, {"id": 133756585, "tags": {"surface": "paved", "lit": "yes", "lanes": "2", "snowplowing": "yes", "name:sv": "Fredriksgatan", "name": "Fredrikinkatu", "name:fi": "Fredrikinkatu", "highway": "residential", "loc_name": "Freda", "maxspeed": "30", "postal_code": "00100"}, "type": "way", "nodes": [1382530879, 301060843, 2214705406]}, {"id": 137388192, "tags": {"surface": "paved", "start_date": "before 1961", "name:sv": "Lars\u00e4ngsv\u00e4gen", "name:fi": "Laurinniityntie", "source": "survey", "highway": "residential", "name": "Laurinniityntie", "maxspeed": "30", "postal_code": "00440", "lit": "yes", "bicycle": "use_sidepath", "parking:left": "no", "snowplowing": "yes"}, "type": "way", "nodes": [143490644, 635718324, 143490648, 143569301, 143490651, 1549392764, 143490653, 1549392766, 143490655, 635715408, 143490660, 1586069583, 143490665, 143490827, 281888536, 162257385, 281888319]}, {"id": 137388193, "tags": {"surface": "paved", "start_date": "1910s", "name:sv": "Lars\u00e4ngsv\u00e4gen", "name:fi": "Laurinniityntie", "source": "survey", "highway": "residential", "name": "Laurinniityntie", "maxspeed": "30", "postal_code": "00440", "lit": "yes", "bicycle": "use_sidepath", "parking:left": "no", "snowplowing": "yes"}, "type": "way", "nodes": [141359286, 143490641, 143490644]}, {"id": 175129268, "tags": {"surface": "paved", "name:sv": "V\u00e5gv\u00e4gen", "name:fi": "Vaakatie", "source": "survey", "highway": "residential", "name": "Vaakatie", "maxspeed": "40", "postal_code": "00440", "lit": "yes", "lanes": "1", "oneway": "yes", "snowplowing": "yes"}, "type": "way", "nodes": [281871903, 3422101231, 1402161825, 36813121]}, {"id": 202636122, "tags": {"snowplowing": "yes", "surface": "paved", "parking:condition:right:reason": "junction", "name:sv": "Museigatan", "parking:condition:left:default": "free", "name:fi": "Museokatu", "parking:lane:left": "parallel", "highway": "residential", "name": "Museokatu", "maxspeed": "30", "postal_code": "00100", "lit": "yes", "lanes": "2", "parking:condition:left": "ticket", "parking:lane:left:parallel": "painted_area_only", "parking:condition:left:residents": "F", "parking:ticket:zone": "2", "parking:lane:right": "no_stopping", "parking:condition:left:time_interval": "Mo-Fr 09:00-21:00"}, "type": "way", "nodes": [2126026324, 1382693099, 718406091]}, {"id": 211122001, "tags": {"surface": "paved", "start_date": "after 1961", "name:sv": "\u00c4ngslyckev\u00e4gen", "name:fi": "Niitynper\u00e4ntie", "source": "survey", "highway": "residential", "snowplowing:category": "4", "maxspeed": "30", "postal_code": "00440", "lit": "yes", "name": "Niitynper\u00e4ntie", "snowplowing": "yes"}, "type": "way", "nodes": [143490718, 143490724, 143490729, 143490735, 281870927, 2444168345, 143490741, 143490746, 143490767, 143490750, 143490752, 143490755, 143490673]}, {"id": 211456307, "tags": {"parking:lane:both:parallel": "on_street", "surface": "paved", "name:sv": "Dagmarsgatan", "parking:condition:both": "ticket", "snowplowing": "yes", "parking:lane:both": "parallel", "highway": "residential", "lit": "yes", "maxspeed": "30", "postal_code": "00100", "parking:condition:both:residents": "F", "oneway": "yes", "parking:condition:both:time_interval": "Mo-Fr 09:00-21:00", "parking:both:placement": "dedicated", "name": "Dagmarinkatu", "parking:ticket:zone": "2", "name:fi": "Dagmarinkatu"}, "type": "way", "nodes": [2214705410, 296572534, 1382547170, 2214705405]}, {"id": 211456308, "tags": {"loc_name": "Freda", "surface": "paved", "parking:condition:both:maxstay": "60 min", "name:sv": "Fredriksgatan", "parking:condition:both": "ticket", "snowplowing": "yes", "parking:lane:both": "parallel", "highway": "residential", "name": "Fredrikinkatu", "maxspeed": "30", "postal_code": "00100", "parking:condition:both:residents": "F", "lit": "yes", "lanes": "2", "parking:condition:both:time_interval": "Mo-Fr 09:00-21:00", "parking:both:placement": "dedicated", "parking:ticket:zone": "2", "parking:lane:both:parallel": "on_street", "name:fi": "Fredrikinkatu"}, "type": "way", "nodes": [2214705406, 59767003]}, {"id": 211695402, "tags": {"start_date": "before 1943", "lit": "yes", "surface": "asphalt", "snowplowing": "yes", "name:sv": "Sofielundsgatan", "highway": "residential", "parking:lane:both": "no_parking", "name:fi": "Sofianlehdonkatu", "name": "Sofianlehdonkatu", "maxspeed": "30", "postal_code": "00610"}, "type": "way", "nodes": [535183242, 317374652, 33981625]}, {"id": 258899437, "tags": {"source:hazard": "traffic_sign", "surface": "paved", "start_date": "before 1961", "paved:date:lane:right": "2011", "name:sv": "Sofielundsgatan", "parking:lane:left:placement": "dedicated", "snowplowing": "yes", "parking:lane:left": "parallel", "highway": "residential", "name": "Sofianlehdonkatu", "maxspeed": "30", "postal_code": "00610", "snowplowing:category": "2", "hazard": "children", "lit": "yes", "lanes": "2", "parking:condition:left": "free", "parking:lane:left:parallel": "on_street", "parking:lane:right": "no_parking", "name:fi": "Sofianlehdonkatu"}, "type": "way", "nodes": [2642090075, 346584363, 723954263, 493983043, 760190398]}, {"id": 259835995, "tags": {"snowplowing": "yes", "surface": "paved", "parking:lane:right:placement": "dedicated", "lanes": "2", "name:sv": "Sofielundsgatan", "parking:lane:left:placement": "inlane", "name:fi": "Sofianlehdonkatu", "parking:lane:both": "parallel", "highway": "residential", "name": "Sofianlehdonkatu", "maxspeed": "30", "parking:lane:right:parallel": "on_street", "snowplowing:category": "2", "lit": "yes", "parking:condition:right": "disc", "parking:condition:left": "no_parking", "postal_code": "00610", "parking:condition:left:time_interval": "Mo-Fr 08:00-17:00", "parking:condition:right:time_interval": "Mo-Fr 08:00-17:00", "parking:condition:right:maxstay": "1 h"}, "type": "way", "nodes": [2652972035, 755858279]}, {"id": 264630788, "tags": {"parking:condition:both:default": "free", "parking:placement": "dedicated", "parking:lane:left": "parallel", "highway": "residential", "surface": "paved", "lit": "yes", "parking:lane:left:parallel": "on_street", "snowplowing": "yes", "parking:condition:right:time_interval": "Mo-Fr 09:00-21:00", "zone:traffic": "FI:urban", "parking:lane:right:diagonal": "painted_area_only", "parking:condition:right:residents": "F", "name:sv": "Museigatan", "parking:condition:left:time_interval": "Mo-Fr 08:00-17:00", "maxspeed": "30", "postal_code": "00100", "name": "Museokatu", "lanes": "2", "parking:condition:left": "no_parking", "parking:lane:right": "diagonal", "parking:ticket:zone": "2", "name:fi": "Museokatu", "parking:condition:right": "ticket"}, "type": "way", "nodes": [2702884947, 718406089]}, {"id": 304836847, "tags": {"surface": "paved", "lit": "yes", "lanes": "2", "snowplowing": "yes", "name:sv": "Oksanensgatan", "name:fi": "Oksasenkatu", "highway": "residential", "name": "Oksasenkatu", "maxspeed": "30", "postal_code": "00100"}, "type": "way", "nodes": [3094260593, 296874679, 866969491]}, {"id": 304836848, "tags": {"surface": "paved", "name:sv": "Fj\u00e4lldalsgatan", "paved:date": "2014", "parking:lane:both": "no_stopping", "highway": "residential", "name": "Tunturikatu", "maxspeed": "40", "postal_code": "00100", "lit": "yes", "lanes": "2", "name:fi": "Tunturikatu", "snowplowing": "yes"}, "type": "way", "nodes": [3094260592, 296874674, 333533221]}, {"id": 312651720, "tags": {"parking:condition:both:default": "free", "surface": "paved", "parking:condition:both:maxstay": "4 h", "name:sv": "Lappogatan", "parking:condition:both": "ticket", "snowplowing": "yes", "parking:lane:both": "parallel", "highway": "residential", "lit": "yes", "maxspeed": "30", "parking:lane:both:inline": "on_street", "maxspeed:forward": "40", "parking:condition:both:residents": "F", "parking:condition:both:time_interval": "Mo-Fr 09:00-19:00", "name": "Lapuankatu", "postal_code": "00100", "name:fi": "Lapuankatu"}, "type": "way", "nodes": [3185196215, 976570982]}, {"id": 312838152, "tags": {"surface": "cobblestone", "lit": "yes", "lanes": "2", "parking:condition:reason": "junction", "name:sv": "Museigatan", "name:fi": "Museokatu", "parking:lane:both": "no_stopping", "highway": "residential", "name": "Museokatu", "maxspeed": "30", "postal_code": "00100"}, "type": "way", "nodes": [316007406, 848601467]}, {"id": 324231118, "tags": {"parking:condition:right:default": "free", "parking:lane:right:diagonal": "painted_area_only", "parking:condition:reason:left": "taxi", "lanes": "2", "parking:condition:right:residents": "F", "parking:placement": "dedicated", "snowplowing": "yes", "parking:lane:left": "no_parking", "highway": "residential", "name": "Museokatu", "maxspeed": "30", "postal_code": "00100", "surface": "paved", "name:sv": "Museigatan", "lit": "yes", "parking:condition:right": "ticket", "parking:lane:right": "diagonal", "parking:ticket:zone": "2", "parking:condition:taxi:left": "free", "name:fi": "Museokatu", "parking:condition:right:time_interval": "Mo-Fr 09:00-21:00"}, "type": "way", "nodes": [3309545018, 579397487]}, {"id": 324231121, "tags": {"surface": "paved", "name:sv": "Museigatan", "highway": "residential", "name": "Museokatu", "maxspeed": "30", "postal_code": "00100", "parking:condition:reason:right": "junction", "lit": "yes", "lanes": "2", "parking:lane:right": "no_stopping", "parking:ticket:zone": "2", "name:fi": "Museokatu"}, "type": "way", "nodes": [3309545020, 3309545021]}, {"id": 324231122, "tags": {"parking:condition:both:default": "free", "parking:lane:right:diagonal": "painted_area_only", "name:sv": "Museigatan", "parking:condition:both": "ticket", "parking:lane:left:parallel": "on_street", "parking:lane:left": "parallel", "highway": "residential", "lit": "yes", "maxspeed": "30", "postal_code": "00100", "parking:condition:both:residents": "F", "lanes": "2", "parking:condition:both:time_interval": "Mo-Fr 09:00-21:00", "name": "Museokatu", "parking:ticket:zone": "2", "parking:lane:right": "diagonal", "name:fi": "Museokatu", "surface": "paved"}, "type": "way", "nodes": [3309545019, 3309545020]}, {"id": 324231123, "tags": {"surface": "paved", "lit": "yes", "lanes": "2", "parking:condition:reason": "junction", "name:sv": "Museigatan", "name:fi": "Museokatu", "parking:lane:both": "no_stopping", "highway": "residential", "name": "Museokatu", "maxspeed": "30", "postal_code": "00100"}, "type": "way", "nodes": [3309545021, 309120647, 162364738, 309120649, 718406090]}, {"id": 330415862, "tags": {"lit": "yes", "surface": "paved", "snowplowing": "yes", "name:sv": "Kopperv\u00e4gen", "name:fi": "Kuparitie", "maxheight": "3.3", "highway": "residential", "name": "Kuparitie", "maxspeed": "40", "postal_code": "00440"}, "type": "way", "nodes": [298532807, 143569410]}, {"id": 330415869, "tags": {"lit": "yes", "surface": "paved", "snowplowing": "yes", "name:sv": "Kopperv\u00e4gen", "highway": "residential", "name:fi": "Kuparitie", "name": "Kuparitie", "maxspeed": "40", "postal_code": "00440"}, "type": "way", "nodes": [143569410, 305034782, 36813675, 36813676]}, {"id": 335084841, "tags": {"start_date": "after 1962", "lit": "yes", "surface": "paved", "snowplowing": "yes", "name:sv": "V\u00e5gv\u00e4gen", "highway": "residential", "source": "survey", "name:fi": "Vaakatie", "name": "Vaakatie", "maxspeed": "30", "postal_code": "00440"}, "type": "way", "nodes": [3422101245, 346584827, 2444160719, 143569585, 2444157124, 141349067, 455018068, 1487686178, 143490791]}, {"id": 416539515, "tags": {"surface": "paved", "start_date": "after 1961", "name:sv": "\u00c4ngslyckev\u00e4gen", "name:fi": "Niitynper\u00e4ntie", "source": "survey", "highway": "residential", "snowplowing:category": "4", "maxspeed": "30", "postal_code": "00440", "lit": "yes", "name": "Niitynper\u00e4ntie", "snowplowing": "yes"}, "type": "way", "nodes": [4172862258, 143490697, 4172862255, 4172862253, 4172862256, 4172862259, 4172862254, 3422254503, 143490699]}], "version": 0.6, "osm3s": {"copyright": "The data included in this document is from www.openstreetmap.org. The data is made available under ODbL.", "timestamp_areas_base": "2019-01-23T14:57:02Z", "timestamp_osm_base": "2019-01-23T15:40:03Z"}}